$GPGGA,000000.000,,,,,,,,1119.1,M,0.0,M,,*71
$GPGGA,000000.200,,,,,,,,1124.4,M,0.0,M,,*78
$GPGGA,000000.400,,,,,,,,1125.2,M,0.0,M,,*79
$GPGGA,000000.600,,,,,,,,1121.5,M,0.0,M,,*78
$GPGGA,000000.800,,,,,,,,1119.7,M,0.0,M,,*7F
$GPGGA,000001.000,,,,,,,,1120.5,M,0.0,M,,*7E
$GPGGA,000001.200,,,,,,,,1121.6,M,0.0,M,,*7E
$GPGGA,000001.400,,,,,,,,1119.8,M,0.0,M,,*7D
$GPGGA,000001.600,,,,,,,,1126.4,M,0.0,M,,*7F
$GPGGA,000001.800,,,,,,,,1122.7,M,0.0,M,,*76
$GPGGA,000002.000,,,,,,,,1124.5,M,0.0,M,,*79
$GPGGA,000002.200,,,,,,,,1123.8,M,0.0,M,,*71
$GPGGA,000002.400,,,,,,,,1125.1,M,0.0,M,,*78
$GPGGA,000002.600,,,,,,,,1123.3,M,0.0,M,,*7E
$GPGGA,000002.800,,,,,,,,1122.1,M,0.0,M,,*73
$GPGGA,000003.000,,,,,,,,1126.5,M,0.0,M,,*7A
$GPGGA,000003.200,,,,,,,,1123.1,M,0.0,M,,*79
$GPGGA,000003.400,,,,,,,,1122.7,M,0.0,M,,*78
$GPGGA,000003.600,,,,,,,,1126.9,M,0.0,M,,*70
$GPGGA,000003.800,,,,,,,,1123.1,M,0.0,M,,*73
$GPGGA,000004.000,,,,,,,,1123.1,M,0.0,M,,*7C
$GPGGA,000004.200,,,,,,,,1128.7,M,0.0,M,,*73
$GPGGA,000004.400,,,,,,,,1126.9,M,0.0,M,,*75
$GPGGA,000004.600,,,,,,,,1125.1,M,0.0,M,,*7C
$GPGGA,000004.800,,,,,,,,1125.1,M,0.0,M,,*72
$GPGGA,000005.000,,,,,,,,1123.6,M,0.0,M,,*7A
$GPGGA,000005.200,,,,,,,,1128.7,M,0.0,M,,*72
$GPGGA,000005.400,,,,,,,,1127.0,M,0.0,M,,*7C
$GPGGA,000005.600,,,,,,,,1128.5,M,0.0,M,,*74
$GPGGA,000005.800,,,,,,,,1129.2,M,0.0,M,,*7C
$GPGGA,000006.000,,,,,,,,1125.7,M,0.0,M,,*7E
$GPGGA,000006.200,,,,,,,,1129.5,M,0.0,M,,*72
$GPGGA,000006.400,,,,,,,,1127.9,M,0.0,M,,*76
$GPGGA,000006.600,,,,,,,,1128.3,M,0.0,M,,*71
$GPGGA,000006.800,,,,,,,,1124.3,M,0.0,M,,*73
$GPGGA,000007.000,,,,,,,,1128.8,M,0.0,M,,*7D
$GPGGA,000007.200,,,,,,,,1126.9,M,0.0,M,,*70
$GPGGA,000007.400,,,,,,,,1126.4,M,0.0,M,,*7B
$GPGGA,000007.600,,,,,,,,1127.6,M,0.0,M,,*7A
$GPGGA,000007.800,,,,,,,,1126.5,M,0.0,M,,*76
$GPGGA,000008.000,,,,,,,,1126.8,M,0.0,M,,*7C
$GPGGA,000008.200,,,,,,,,1125.8,M,0.0,M,,*7D
$GPGGA,000008.400,,,,,,,,1126.1,M,0.0,M,,*71
$GPGGA,000008.600,,,,,,,,1127.4,M,0.0,M,,*77
$GPGGA,000008.800,,,,,,,,1130.9,M,0.0,M,,*72
$GPGGA,000009.000,,,,,,,,1124.4,M,0.0,M,,*73
$GPGGA,000009.200,,,,,,,,1122.9,M,0.0,M,,*7A
$GPGGA,000009.400,,,,,,,,1127.6,M,0.0,M,,*76
$GPGGA,000009.600,,,,,,,,1129.8,M,0.0,M,,*74
$GPGGA,000009.800,,,,,,,,1127.5,M,0.0,M,,*79
$GPGGA,000010.000,,,,,,,,1123.6,M,0.0,M,,*7E
$GPGGA,000010.200,,,,,,,,1126.8,M,0.0,M,,*77
$GPGGA,000010.400,,,,,,,,1127.0,M,0.0,M,,*78
$GPGGA,000010.600,,,,,,,,1125.2,M,0.0,M,,*7A
$GPGGA,000010.800,,,,,,,,1130.3,M,0.0,M,,*71
$GPGGA,000011.000,,,,,,,,1129.6,M,0.0,M,,*75
$GPGGA,000011.200,,,,,,,,1126.5,M,0.0,M,,*7B
$GPGGA,000011.400,,,,,,,,1130.4,M,0.0,M,,*7B
$GPGGA,000011.600,,,,,,,,1127.9,M,0.0,M,,*72
$GPGGA,000011.800,,,,,,,,1131.8,M,0.0,M,,*7A
$GPGGA,000012.000,,,,,,,,1130.3,M,0.0,M,,*7B
$GPGGA,000012.200,,,,,,,,1132.6,M,0.0,M,,*7E
$GPGGA,000012.400,,,,,,,,1128.7,M,0.0,M,,*72
$GPGGA,000012.600,,,,,,,,1130.6,M,0.0,M,,*78
$GPGGA,000012.800,,,,,,,,1147.2,M,0.0,M,,*72
$GPGGA,000013.000,,,,,,,,1129.0,M,0.0,M,,*71
$GPGGA,000013.200,,,,,,,,1130.3,M,0.0,M,,*78
$GPGGA,000013.400,,,,,,,,1129.5,M,0.0,M,,*70
$GPGGA,000013.600,,,,,,,,1129.3,M,0.0,M,,*74
$GPGGA,000013.800,,,,,,,,1130.1,M,0.0,M,,*70
$GPGGA,000014.000,,,,,,,,1129.3,M,0.0,M,,*75
$GPGGA,000014.200,,,,,,,,1128.1,M,0.0,M,,*74
$GPGGA,000014.400,,,,,,,,1130.4,M,0.0,M,,*7E
$GPGGA,000014.600,,,,,,,,1129.8,M,0.0,M,,*78
$GPGGA,000014.800,,,,,,,,1130.4,M,0.0,M,,*72
$GPGGA,000015.000,,,,,,,,1129.6,M,0.0,M,,*71
$GPGGA,000015.200,,,,,,,,1131.1,M,0.0,M,,*7D
$GPGGA,000015.400,,,,,,,,1130.0,M,0.0,M,,*7B
$GPGGA,000015.600,,,,,,,,1126.4,M,0.0,M,,*7A
$GPGGA,000015.800,,,,,,,,1131.5,M,0.0,M,,*73
$GPGGA,000016.000,,,,,,,,1130.9,M,0.0,M,,*75
$GPGGA,000016.200,,,,,,,,1128.8,M,0.0,M,,*7F
$GPGGA,000016.400,,,,,,,,1132.0,M,0.0,M,,*7A
$GPGGA,000016.600,,,,,,,,1130.8,M,0.0,M,,*72
$GPGGA,000016.800,,,,,,,,1132.6,M,0.0,M,,*70
$GPGGA,000017.000,,,,,,,,1131.1,M,0.0,M,,*7D
$GPGGA,000017.200,,,,,,,,1130.7,M,0.0,M,,*78
$GPGGA,000017.400,,,,,,,,1131.9,M,0.0,M,,*71
$GPGGA,000017.600,,,,,,,,1128.9,M,0.0,M,,*7B
$GPGGA,000017.800,,,,,,,,1126.5,M,0.0,M,,*77
$GPGGA,000018.000,,,,,,,,1129.1,M,0.0,M,,*7B
$GPGGA,000018.200,,,,,,,,1131.3,M,0.0,M,,*72
$GPGGA,000018.400,,,,,,,,1129.4,M,0.0,M,,*7A
$GPGGA,000018.600,,,,,,,,1128.7,M,0.0,M,,*7A
$GPGGA,000018.800,,,,,,,,1126.0,M,0.0,M,,*7D
$GPGGA,000019.000,,,,,,,,1125.8,M,0.0,M,,*7F
$GPGGA,000019.200,,,,,,,,1127.3,M,0.0,M,,*74
$GPGGA,000019.400,,,,,,,,1125.8,M,0.0,M,,*7B
$GPGGA,000019.600,,,,,,,,1126.9,M,0.0,M,,*7B
$GPGGA,000019.800,,,,,,,,1127.9,M,0.0,M,,*74
$GPGGA,000020.000,,,,,,,,1128.9,M,0.0,M,,*79
$GPGGA,000020.200,,,,,,,,1128.3,M,0.0,M,,*71
$GPGGA,000020.400,,,,,,,,1129.1,M,0.0,M,,*74
$GPGGA,000020.600,,,,,,,,1124.6,M,0.0,M,,*7C
$GPGGA,000020.800,,,,,,,,1123.0,M,0.0,M,,*73
$GPGGA,000021.000,,,,,,,,1125.1,M,0.0,M,,*7D
$GPGGA,000021.200,,,,,,,,1123.1,M,0.0,M,,*79
$GPGGA,000021.400,,,,,,,,1126.7,M,0.0,M,,*7C
$GPGGA,000021.600,,,,,,,,1127.1,M,0.0,M,,*79
$GPGGA,000021.800,,,,,,,,1129.6,M,0.0,M,,*7E
$GPGGA,000022.000,,,,,,,,1123.8,M,0.0,M,,*71
$GPGGA,000022.200,,,,,,,,1124.5,M,0.0,M,,*79
$GPGGA,000022.400,,,,,,,,1123.1,M,0.0,M,,*7C
$GPGGA,000022.600,,,,,,,,1124.1,M,0.0,M,,*79
$GPGGA,000022.800,,,,,,,,1127.1,M,0.0,M,,*74
$GPGGA,000023.000,,,,,,,,1125.4,M,0.0,M,,*7A
$GPGGA,000023.200,,,,,,,,1126.3,M,0.0,M,,*7C
$GPGGA,000023.400,,,,,,,,1123.4,M,0.0,M,,*78
$GPGGA,000023.600,,,,,,,,1124.9,M,0.0,M,,*70
$GPGGA,000023.800,,,,,,,,1125.4,M,0.0,M,,*72
$GPGGA,000024.000,,,,,,,,1125.6,M,0.0,M,,*7F
$GPGGA,000024.200,,,,,,,,1126.2,M,0.0,M,,*7A
$GPGGA,000024.400,,,,,,,,1127.4,M,0.0,M,,*7B
$GPGGA,000024.600,,,,,,,,1124.2,M,0.0,M,,*7C
$GPGGA,000024.800,,,,,,,,1126.7,M,0.0,M,,*75
$GPGGA,000025.000,,,,,,,,1125.0,M,0.0,M,,*78
$GPGGA,000025.200,,,,,,,,1127.1,M,0.0,M,,*79
$GPGGA,000025.400,,,,,,,,1126.7,M,0.0,M,,*78
$GPGGA,000025.600,,,,,,,,1126.2,M,0.0,M,,*7F
$GPGGA,000025.800,,,,,,,,1124.0,M,0.0,M,,*71
$GPGGA,000026.000,,,,,,,,1122.2,M,0.0,M,,*7E
$GPGGA,000026.200,,,,,,,,1125.8,M,0.0,M,,*71
$GPGGA,000026.400,,,,,,,,1125.7,M,0.0,M,,*78
$GPGGA,000026.600,,,,,,,,0.0,M,0.0,M,,*4A
$GPGGA,000026.800,,,,,,,,1122.8,M,0.0,M,,*7C
$GPGGA,000027.000,,,,,,,,1123.8,M,0.0,M,,*74
$GPGGA,000027.200,,,,,,,,1123.6,M,0.0,M,,*78
$GPGGA,000027.400,,,,,,,,1120.1,M,0.0,M,,*7A
$GPGGA,000027.600,,,,,,,,1122.0,M,0.0,M,,*7B
$GPGGA,000027.800,,,,,,,,1124.1,M,0.0,M,,*72
$GPGGA,000028.000,,,,,,,,1125.6,M,0.0,M,,*73
$GPGGA,000028.200,,,,,,,,1125.0,M,0.0,M,,*77
$GPGGA,000028.400,,,,,,,,1122.9,M,0.0,M,,*7F
$GPGGA,000028.600,,,,,,,,1123.4,M,0.0,M,,*71
$GPGGA,000028.800,,,,,,,,1122.6,M,0.0,M,,*7C
$GPGGA,000029.000,,,,,,,,1122.6,M,0.0,M,,*75
$GPGGA,000029.200,,,,,,,,1123.3,M,0.0,M,,*73
$GPGGA,000029.400,,,,,,,,1122.4,M,0.0,M,,*73
$GPGGA,000029.600,,,,,,,,1122.5,M,0.0,M,,*70
$GPGGA,000029.800,,,,,,,,1122.8,M,0.0,M,,*73
$GPGGA,000030.000,,,,,,,,1119.8,M,0.0,M,,*7B
$GPGGA,000030.200,,,,,,,,1119.9,M,0.0,M,,*78
$GPGGA,000030.400,,,,,,,,1122.7,M,0.0,M,,*78
$GPGGA,000030.600,,,,,,,,1117.3,M,0.0,M,,*78
$GPGGA,000030.800,,,,,,,,1119.6,M,0.0,M,,*7D
$GPGGA,000031.000,,,,,,,,1120.4,M,0.0,M,,*7C
$GPGGA,000031.200,,,,,,,,1118.7,M,0.0,M,,*76
$GPGGA,000031.400,,,,,,,,1109.8,M,0.0,M,,*7F
$GPGGA,000031.600,,,,,,,,1112.8,M,0.0,M,,*77
$GPGGA,000031.800,,,,,,,,1117.7,M,0.0,M,,*73
$GPGGA,000032.000,,,,,,,,1117.0,M,0.0,M,,*7F
$GPGGA,000032.200,,,,,,,,1116.8,M,0.0,M,,*74
$GPGGA,000032.400,,,,,,,,1116.1,M,0.0,M,,*7B
$GPGGA,000032.600,,,,,,,,1115.8,M,0.0,M,,*73
$GPGGA,000032.800,,,,,,,,1120.7,M,0.0,M,,*74
$GPGGA,000033.000,,,,,,,,1118.5,M,0.0,M,,*74
$GPGGA,000033.200,,,,,,,,1117.9,M,0.0,M,,*75
$GPGGA,000033.400,,,,,,,,1118.9,M,0.0,M,,*7C
$GPGGA,000033.600,,,,,,,,1115.9,M,0.0,M,,*73
$GPGGA,000033.800,,,,,,,,1115.7,M,0.0,M,,*73
$GPGGA,000034.000,,,,,,,,1115.3,M,0.0,M,,*78
$GPGGA,000034.200,,,,,,,,1117.7,M,0.0,M,,*7C
$GPGGA,000034.400,,,,,,,,1117.3,M,0.0,M,,*7E
$GPGGA,000034.600,,,,,,,,1120.6,M,0.0,M,,*7D
$GPGGA,000034.800,,,,,,,,1114.8,M,0.0,M,,*7A
$GPGGA,000035.000,,,,,,,,1110.4,M,0.0,M,,*7B
$GPGGA,000035.200,,,,,,,,1117.9,M,0.0,M,,*73
$GPGGA,000035.400,,,,,,,,1113.6,M,0.0,M,,*7E
$GPGGA,000035.600,,,,,,,,1114.3,M,0.0,M,,*7E
$GPGGA,000035.800,,,,,,,,1110.8,M,0.0,M,,*7F
$GPGGA,000036.000,,,,,,,,1116.5,M,0.0,M,,*7F
$GPGGA,000036.200,,,,,,,,1115.8,M,0.0,M,,*73
$GPGGA,000036.400,,,,,,,,1114.6,M,0.0,M,,*7A
$GPGGA,000036.600,,,,,,,,1117.2,M,0.0,M,,*7F
$GPGGA,000036.800,,,,,,,,1114.0,M,0.0,M,,*70
$GPGGA,000037.000,,,,,,,,1111.9,M,0.0,M,,*75
$GPGGA,000037.200,,,,,,,,1114.4,M,0.0,M,,*7F
$GPGGA,000037.400,,,,,,,,1111.3,M,0.0,M,,*7B
$GPGGA,000037.600,,,,,,,,1114.6,M,0.0,M,,*79
$GPGGA,000037.800,,,,,,,,1115.2,M,0.0,M,,*72
$GPGGA,000038.000,,,,,,,,1112.3,M,0.0,M,,*73
$GPGGA,000038.200,,,,,,,,1108.9,M,0.0,M,,*70
$GPGGA,000038.400,,,,,,,,1106.7,M,0.0,M,,*76
$GPGGA,000038.600,,,,,,,,1113.9,M,0.0,M,,*7E
$GPGGA,000038.800,,,,,,,,1112.2,M,0.0,M,,*7A
$GPGGA,000039.000,,,,,,,,1111.8,M,0.0,M,,*7A
$GPGGA,000039.200,,,,,,,,1110.2,M,0.0,M,,*73
$GPGGA,000039.400,,,,,,,,1110.1,M,0.0,M,,*76
$GPGGA,000039.600,,,,,,,,1109.2,M,0.0,M,,*7F
$GPGGA,000039.800,,,,,,,,1105.1,M,0.0,M,,*7E
$GPGGA,000040.000,,,,,,,,1108.1,M,0.0,M,,*75
$GPGGA,000040.200,,,,,,,,1107.8,M,0.0,M,,*71
$GPGGA,000040.400,,,,,,,,1106.4,M,0.0,M,,*7A
$GPGGA,000040.600,,,,,,,,1105.6,M,0.0,M,,*79
$GPGGA,000040.800,,,,,,,,1107.1,M,0.0,M,,*72
$GPGGA,000041.000,,,,,,,,1104.3,M,0.0,M,,*7A
$GPGGA,000041.200,,,,,,,,1103.9,M,0.0,M,,*75
$GPGGA,000041.400,,,,,,,,1104.5,M,0.0,M,,*78
$GPGGA,000041.600,,,,,,,,1107.2,M,0.0,M,,*7E
$GPGGA,000041.800,,,,,,,,1103.2,M,0.0,M,,*74
$GPGGA,000042.000,,,,,,,,1105.6,M,0.0,M,,*7D
$GPGGA,000042.200,,,,,,,,1104.9,M,0.0,M,,*71
$GPGGA,000042.400,,,,,,,,1108.5,M,0.0,M,,*77
$GPGGA,000042.600,,,,,,,,1107.9,M,0.0,M,,*76
$GPGGA,000042.800,,,,,,,,1105.5,M,0.0,M,,*76
$GPGGA,000043.000,,,,,,,,1108.6,M,0.0,M,,*71
$GPGGA,000043.200,,,,,,,,1105.5,M,0.0,M,,*7D
$GPGGA,000043.400,,,,,,,,1105.6,M,0.0,M,,*78
$GPGGA,000043.600,,,,,,,,1105.5,M,0.0,M,,*79
$GPGGA,000043.800,,,,,,,,1103.3,M,0.0,M,,*77
$GPGGA,000044.000,,,,,,,,1105.2,M,0.0,M,,*7F
$GPGGA,000044.200,,,,,,,,1104.9,M,0.0,M,,*77
$GPGGA,000044.400,,,,,,,,1101.8,M,0.0,M,,*75
$GPGGA,000044.600,,,,,,,,1099.7,M,0.0,M,,*78
$GPGGA,000044.800,,,,,,,,1106.3,M,0.0,M,,*75
$GPGGA,000045.000,,,,,,,,1101.4,M,0.0,M,,*7C
$GPGGA,000045.200,,,,,,,,1102.4,M,0.0,M,,*7D
$GPGGA,000045.400,,,,,,,,1104.1,M,0.0,M,,*78
$GPGGA,000045.600,,,,,,,,1099.2,M,0.0,M,,*7C
$GPGGA,000045.800,,,,,,,,1097.9,M,0.0,M,,*77
$GPGGA,000046.000,,,,,,,,1097.7,M,0.0,M,,*72
$GPGGA,000046.200,,,,,,,,1102.5,M,0.0,M,,*7F
$GPGGA,000046.400,,,,,,,,1100.9,M,0.0,M,,*77
$GPGGA,000046.600,,,,,,,,1099.1,M,0.0,M,,*7C
$GPGGA,000046.800,,,,,,,,1102.2,M,0.0,M,,*72
$GPGGA,000047.000,,,,,,,,1095.8,M,0.0,M,,*7E
$GPGGA,000047.200,,,,,,,,1094.4,M,0.0,M,,*71
$GPGGA,000047.400,,,,,,,,1099.6,M,0.0,M,,*78
$GPGGA,000047.600,,,,,,,,1094.7,M,0.0,M,,*76
$GPGGA,000047.800,,,,,,,,1099.9,M,0.0,M,,*7B
$GPGGA,000048.000,,,,,,,,1095.5,M,0.0,M,,*7C
$GPGGA,000048.200,,,,,,,,1096.5,M,0.0,M,,*7D
$GPGGA,000048.400,,,,,,,,1095.1,M,0.0,M,,*7C
$GPGGA,000048.600,,,,,,,,1097.4,M,0.0,M,,*79
$GPGGA,000048.800,,,,,,,,1094.1,M,0.0,M,,*71
$GPGGA,000049.000,,,,,,,,1093.8,M,0.0,M,,*76
$GPGGA,000049.200,,,,,,,,1098.6,M,0.0,M,,*71
$GPGGA,000049.400,,,,,,,,1096.8,M,0.0,M,,*77
$GPGGA,000049.600,,,,,,,,1095.7,M,0.0,M,,*79
$GPGGA,000049.800,,,,,,,,1094.2,M,0.0,M,,*73
$GPGGA,000050.000,,,,,,,,1095.1,M,0.0,M,,*71
$GPGGA,000050.200,,,,,,,,1093.4,M,0.0,M,,*70
$GPGGA,000050.400,,,,,,,,1094.5,M,0.0,M,,*70
$GPGGA,000050.600,,,,,,,,1092.0,M,0.0,M,,*71
$GPGGA,000050.800,,,,,,,,1095.5,M,0.0,M,,*7D
$GPGGA,000051.000,,,,,,,,1093.0,M,0.0,M,,*77
$GPGGA,000051.200,,,,,,,,1091.3,M,0.0,M,,*74
$GPGGA,000051.400,,,,,,,,1092.0,M,0.0,M,,*72
$GPGGA,000051.600,,,,,,,,1092.2,M,0.0,M,,*72
$GPGGA,000051.800,,,,,,,,1092.7,M,0.0,M,,*79
$GPGGA,000052.000,,,,,,,,1093.1,M,0.0,M,,*75
$GPGGA,000052.200,,,,,,,,1089.2,M,0.0,M,,*7F
$GPGGA,000052.400,,,,,,,,1091.2,M,0.0,M,,*70
$GPGGA,000052.600,,,,,,,,1088.9,M,0.0,M,,*71
$GPGGA,000052.800,,,,,,,,1091.1,M,0.0,M,,*7F
$GPGGA,000053.000,,,,,,,,1089.8,M,0.0,M,,*76
$GPGGA,000053.200,,,,,,,,1086.8,M,0.0,M,,*7B
$GPGGA,000053.400,,,,,,,,1087.2,M,0.0,M,,*76
$GPGGA,000053.600,,,,,,,,1087.1,M,0.0,M,,*77
$GPGGA,000053.800,,,,,,,,1087.6,M,0.0,M,,*7E
$GPGGA,000054.000,,,,,,,,1083.6,M,0.0,M,,*75
$GPGGA,000054.200,,,,,,,,1085.7,M,0.0,M,,*70
$GPGGA,000054.400,,,,,,,,1084.9,M,0.0,M,,*79
$GPGGA,000054.600,,,,,,,,1086.4,M,0.0,M,,*74
$GPGGA,000054.800,,,,,,,,1083.4,M,0.0,M,,*7F
$GPGGA,000055.000,,,,,,,,1085.1,M,0.0,M,,*75
$GPGGA,000055.200,,,,,,,,1083.7,M,0.0,M,,*77
$GPGGA,000055.400,,,,,,,,1085.1,M,0.0,M,,*71
$GPGGA,000055.600,,,,,,,,1083.6,M,0.0,M,,*72
$GPGGA,000055.800,,,,,,,,1083.4,M,0.0,M,,*7E
$GPGGA,000056.000,,,,,,,,1083.7,M,0.0,M,,*76
$GPGGA,000056.200,,,,,,,,1087.6,M,0.0,M,,*71
$GPGGA,000056.400,,,,,,,,1087.9,M,0.0,M,,*78
$GPGGA,000056.600,,,,,,,,1084.4,M,0.0,M,,*74
$GPGGA,000056.800,,,,,,,,1084.7,M,0.0,M,,*79
$GPGGA,000057.000,,,,,,,,1082.6,M,0.0,M,,*77
$GPGGA,000057.200,,,,,,,,1088.2,M,0.0,M,,*7B
$GPGGA,000057.400,,,,,,,,1083.3,M,0.0,M,,*77
$GPGGA,000057.600,,,,,,,,1082.1,M,0.0,M,,*76
$GPGGA,000057.800,,,,,,,,1082.8,M,0.0,M,,*71
$GPGGA,000058.000,,,,,,,,1080.4,M,0.0,M,,*78
$GPGGA,000058.200,,,,,,,,1080.7,M,0.0,M,,*79
$GPGGA,000058.400,,,,,,,,1084.3,M,0.0,M,,*7F
$GPGGA,000058.600,,,,,,,,1083.2,M,0.0,M,,*7B
$GPGGA,000058.800,,,,,,,,1079.6,M,0.0,M,,*74
$GPGGA,000059.000,,,,,,,,1084.3,M,0.0,M,,*7A
$GPGGA,000059.200,,,,,,,,1080.4,M,0.0,M,,*7B
$GPGGA,000059.400,,,,,,,,1080.9,M,0.0,M,,*70
$GPGGA,000059.600,,,,,,,,1082.1,M,0.0,M,,*78
$GPGGA,000059.800,,,,,,,,1079.0,M,0.0,M,,*73
$GPGGA,000100.000,,,,,,,,1080.5,M,0.0,M,,*75
$GPGGA,000100.200,,,,,,,,1080.3,M,0.0,M,,*71
$GPGGA,000100.400,,,,,,,,1077.3,M,0.0,M,,*7F
$GPGGA,000100.600,,,,,,,,1081.2,M,0.0,M,,*75
$GPGGA,000100.800,,,,,,,,1080.1,M,0.0,M,,*79
$GPGGA,000101.000,,,,,,,,1079.1,M,0.0,M,,*76
$GPGGA,000101.200,,,,,,,,1080.5,M,0.0,M,,*76
$GPGGA,000101.400,,,,,,,,1077.8,M,0.0,M,,*75
$GPGGA,000101.600,,,,,,,,1079.0,M,0.0,M,,*71
$GPGGA,000101.800,,,,,,,,1077.4,M,0.0,M,,*75
$GPGGA,000102.000,,,,,,,,1078.5,M,0.0,M,,*70
$GPGGA,000102.200,,,,,,,,1081.5,M,0.0,M,,*74
$GPGGA,000102.400,,,,,,,,1080.3,M,0.0,M,,*75
$GPGGA,000102.600,,,,,,,,1076.2,M,0.0,M,,*7F
$GPGGA,000102.800,,,,,,,,1074.0,M,0.0,M,,*71
$GPGGA,000103.000,,,,,,,,1079.4,M,0.0,M,,*71
$GPGGA,000103.200,,,,,,,,1077.4,M,0.0,M,,*7D
$GPGGA,000103.400,,,,,,,,1076.9,M,0.0,M,,*77
$GPGGA,000103.600,,,,,,,,1077.1,M,0.0,M,,*7C
$GPGGA,000103.800,,,,,,,,1077.6,M,0.0,M,,*75
$GPGGA,000104.000,,,,,,,,1078.0,M,0.0,M,,*73
$GPGGA,000104.200,,,,,,,,1077.0,M,0.0,M,,*7E
$GPGGA,000104.400,,,,,,,,1078.3,M,0.0,M,,*74
$GPGGA,000104.600,,,,,,,,1076.0,M,0.0,M,,*7B
$GPGGA,000104.800,,,,,,,,1076.5,M,0.0,M,,*70
$GPGGA,000105.000,,,,,,,,1077.9,M,0.0,M,,*74
$GPGGA,000105.200,,,,,,,,1074.3,M,0.0,M,,*7F
$GPGGA,000105.400,,,,,,,,1076.4,M,0.0,M,,*7C
$GPGGA,000105.600,,,,,,,,1074.7,M,0.0,M,,*7F
$GPGGA,000105.800,,,,,,,,1075.4,M,0.0,M,,*73
$GPGGA,000106.000,,,,,,,,1076.2,M,0.0,M,,*7D
$GPGGA,000106.200,,,,,,,,1075.4,M,0.0,M,,*7A
$GPGGA,000106.400,,,,,,,,1071.6,M,0.0,M,,*7A
$GPGGA,000106.600,,,,,,,,1076.4,M,0.0,M,,*7D
$GPGGA,000106.800,,,,,,,,1073.6,M,0.0,M,,*74
$GPGGA,000107.000,,,,,,,,1071.7,M,0.0,M,,*7E
$GPGGA,000107.200,,,,,,,,1073.2,M,0.0,M,,*7B
$GPGGA,000107.400,,,,,,,,1071.5,M,0.0,M,,*78
$GPGGA,000107.600,,,,,,,,1076.7,M,0.0,M,,*7F
$GPGGA,000107.800,,,,,,,,1070.3,M,0.0,M,,*73
$GPGGA,000108.000,,,,,,,,1072.4,M,0.0,M,,*71
$GPGGA,000108.200,,,,,,,,1077.8,M,0.0,M,,*7A
$GPGGA,000108.400,,,,,,,,1072.5,M,0.0,M,,*74
$GPGGA,000108.600,,,,,,,,1070.0,M,0.0,M,,*71
$GPGGA,000108.800,,,,,,,,1073.8,M,0.0,M,,*74
$GPGGA,000109.000,,,,,,,,1071.5,M,0.0,M,,*72
$GPGGA,000109.200,,,,,,,,1069.7,M,0.0,M,,*7B
$GPGGA,000109.400,,,,,,,,1074.5,M,0.0,M,,*73
$GPGGA,000109.600,,,,,,,,1069.7,M,0.0,M,,*7F
$GPGGA,000109.800,,,,,,,,1070.7,M,0.0,M,,*79
$GPGGA,000110.000,,,,,,,,1069.2,M,0.0,M,,*74
$GPGGA,000110.200,,,,,,,,1071.8,M,0.0,M,,*75
$GPGGA,000110.400,,,,,,,,1069.6,M,0.0,M,,*74
$GPGGA,000110.600,,,,,,,,1069.1,M,0.0,M,,*71
$GPGGA,000110.800,,,,,,,,1066.7,M,0.0,M,,*76
$GPGGA,000111.000,,,,,,,,1069.5,M,0.0,M,,*72
$GPGGA,000111.200,,,,,,,,1070.1,M,0.0,M,,*7C
$GPGGA,000111.400,,,,,,,,1065.9,M,0.0,M,,*76
$GPGGA,000111.600,,,,,,,,1069.8,M,0.0,M,,*79
$GPGGA,000111.800,,,,,,,,0.0,M,0.0,M,,*41
$GPGGA,000112.000,,,,,,,,1068.0,M,0.0,M,,*75
$GPGGA,000112.200,,,,,,,,1067.8,M,0.0,M,,*70
$GPGGA,000112.400,,,,,,,,1069.4,M,0.0,M,,*74
$GPGGA,000112.600,,,,,,,,1068.7,M,0.0,M,,*74
$GPGGA,000112.800,,,,,,,,1070.3,M,0.0,M,,*77
$GPGGA,000113.000,,,,,,,,1066.8,M,0.0,M,,*72
$GPGGA,000113.200,,,,,,,,1065.5,M,0.0,M,,*7E
$GPGGA,000113.400,,,,,,,,1068.0,M,0.0,M,,*70
$GPGGA,000113.600,,,,,,,,1067.4,M,0.0,M,,*79
$GPGGA,000113.800,,,,,,,,1067.2,M,0.0,M,,*71
$GPGGA,000114.000,,,,,,,,1067.8,M,0.0,M,,*74
$GPGGA,000114.200,,,,,,,,1065.3,M,0.0,M,,*7F
$GPGGA,000114.400,,,,,,,,1067.1,M,0.0,M,,*79
$GPGGA,000114.600,,,,,,,,1065.2,M,0.0,M,,*7A
$GPGGA,000114.800,,,,,,,,1064.3,M,0.0,M,,*74
$GPGGA,000115.000,,,,,,,,1066.5,M,0.0,M,,*79
$GPGGA,000115.200,,,,,,,,1067.2,M,0.0,M,,*7D
$GPGGA,000115.400,,,,,,,,1065.4,M,0.0,M,,*7F
$GPGGA,000115.600,,,,,,,,1066.2,M,0.0,M,,*78
$GPGGA,000115.800,,,,,,,,1064.5,M,0.0,M,,*73
$GPGGA,000116.000,,,,,,,,1067.6,M,0.0,M,,*78
$GPGGA,000116.200,,,,,,,,1066.1,M,0.0,M,,*7C
$GPGGA,000116.400,,,,,,,,1069.6,M,0.0,M,,*72
$GPGGA,000116.600,,,,,,,,1064.6,M,0.0,M,,*7D
$GPGGA,000116.800,,,,,,,,1065.9,M,0.0,M,,*7D
$GPGGA,000117.000,,,,,,,,1066.1,M,0.0,M,,*7F
$GPGGA,000117.200,,,,,,,,1062.2,M,0.0,M,,*7A
$GPGGA,000117.400,,,,,,,,1061.4,M,0.0,M,,*79
$GPGGA,000117.600,,,,,,,,1059.7,M,0.0,M,,*73
$GPGGA,000117.800,,,,,,,,1060.3,M,0.0,M,,*73
$GPGGA,000118.000,,,,,,,,1063.6,M,0.0,M,,*72
$GPGGA,000118.200,,,,,,,,0.0,M,0.0,M,,*42
$GPGGA,000118.400,,,,,,,,1063.1,M,0.0,M,,*71
$GPGGA,000118.600,,,,,,,,1063.7,M,0.0,M,,*75
$GPGGA,000118.800,,,,,,,,1066.1,M,0.0,M,,*78
$GPGGA,000119.000,,,,,,,,1063.1,M,0.0,M,,*74
$GPGGA,000119.200,,,,,,,,1065.6,M,0.0,M,,*77
$GPGGA,000119.400,,,,,,,,1061.8,M,0.0,M,,*7B
$GPGGA,000119.600,,,,,,,,0.0,M,0.0,M,,*47
$GPGGA,000119.800,,,,,,,,1063.1,M,0.0,M,,*7C
$GPGGA,000120.000,,,,,,,,1062.7,M,0.0,M,,*79
$GPGGA,000120.200,,,,,,,,1060.5,M,0.0,M,,*7B
$GPGGA,000120.400,,,,,,,,1062.6,M,0.0,M,,*7C
$GPGGA,000120.600,,,,,,,,1058.8,M,0.0,M,,*79
$GPGGA,000120.800,,,,,,,,1062.2,M,0.0,M,,*74
$GPGGA,000121.000,,,,,,,,1057.3,M,0.0,M,,*7A
$GPGGA,000121.200,,,,,,,,1061.8,M,0.0,M,,*76
$GPGGA,000121.400,,,,,,,,1056.6,M,0.0,M,,*7A
$GPGGA,000121.600,,,,,,,,1057.3,M,0.0,M,,*7C
$GPGGA,000121.800,,,,,,,,1055.8,M,0.0,M,,*7B
$GPGGA,000122.000,,,,,,,,1058.6,M,0.0,M,,*73
$GPGGA,000122.200,,,,,,,,1059.1,M,0.0,M,,*77
$GPGGA,000122.400,,,,,,,,1054.7,M,0.0,M,,*7A
$GPGGA,000122.600,,,,,,,,1060.8,M,0.0,M,,*70
$GPGGA,000122.800,,,,,,,,1056.9,M,0.0,M,,*7A
$GPGGA,000123.000,,,,,,,,1059.1,M,0.0,M,,*74
$GPGGA,000123.200,,,,,,,,1062.9,M,0.0,M,,*76
$GPGGA,000123.400,,,,,,,,1058.5,M,0.0,M,,*75
$GPGGA,000123.600,,,,,,,,1054.5,M,0.0,M,,*7B
$GPGGA,000123.800,,,,,,,,1056.8,M,0.0,M,,*7A
$GPGGA,000124.000,,,,,,,,1058.7,M,0.0,M,,*74
$GPGGA,000124.200,,,,,,,,1056.4,M,0.0,M,,*7B
$GPGGA,000124.400,,,,,,,,1058.2,M,0.0,M,,*75
$GPGGA,000124.600,,,,,,,,1056.5,M,0.0,M,,*7E
$GPGGA,000124.800,,,,,,,,1058.2,M,0.0,M,,*79
$GPGGA,000125.000,,,,,,,,1057.5,M,0.0,M,,*78
$GPGGA,000125.200,,,,,,,,1052.8,M,0.0,M,,*72
$GPGGA,000125.400,,,,,,,,1057.1,M,0.0,M,,*78
$GPGGA,000125.600,,,,,,,,1054.2,M,0.0,M,,*7A
$GPGGA,000125.800,,,,,,,,1056.1,M,0.0,M,,*75
$GPGGA,000126.000,,,,,,,,1053.3,M,0.0,M,,*79
$GPGGA,000126.200,,,,,,,,1051.4,M,0.0,M,,*7E
$GPGGA,000126.400,,,,,,,,1053.2,M,0.0,M,,*7C
$GPGGA,000126.600,,,,,,,,1056.8,M,0.0,M,,*71
$GPGGA,000126.800,,,,,,,,1051.2,M,0.0,M,,*72
$GPGGA,000127.000,,,,,,,,1049.3,M,0.0,M,,*73
$GPGGA,000127.200,,,,,,,,1051.9,M,0.0,M,,*72
$GPGGA,000127.400,,,,,,,,1053.6,M,0.0,M,,*79
$GPGGA,000127.600,,,,,,,,1053.5,M,0.0,M,,*78
$GPGGA,000127.800,,,,,,,,1056.8,M,0.0,M,,*7E
$GPGGA,000128.000,,,,,,,,1052.8,M,0.0,M,,*7D
$GPGGA,000128.200,,,,,,,,1052.6,M,0.0,M,,*71
$GPGGA,000128.400,,,,,,,,1052.1,M,0.0,M,,*70
$GPGGA,000128.600,,,,,,,,1055.5,M,0.0,M,,*71
$GPGGA,000128.800,,,,,,,,1050.9,M,0.0,M,,*76
$GPGGA,000129.000,,,,,,,,1053.9,M,0.0,M,,*7C
$GPGGA,000129.200,,,,,,,,1055.1,M,0.0,M,,*70
$GPGGA,000129.400,,,,,,,,1052.8,M,0.0,M,,*78
$GPGGA,000129.600,,,,,,,,1054.8,M,0.0,M,,*7C
$GPGGA,000129.800,,,,,,,,1052.9,M,0.0,M,,*75
$GPGGA,000130.000,,,,,,,,1054.7,M,0.0,M,,*7D
$GPGGA,000130.200,,,,,,,,1051.3,M,0.0,M,,*7E
$GPGGA,000130.400,,,,,,,,1049.3,M,0.0,M,,*71
$GPGGA,000130.600,,,,,,,,1051.4,M,0.0,M,,*7D
$GPGGA,000130.800,,,,,,,,1050.7,M,0.0,M,,*71
$GPGGA,000131.000,,,,,,,,1050.7,M,0.0,M,,*78
$GPGGA,000131.200,,,,,,,,1052.0,M,0.0,M,,*7F
$GPGGA,000131.400,,,,,,,,1047.8,M,0.0,M,,*75
$GPGGA,000131.600,,,,,,,,1052.4,M,0.0,M,,*7F
$GPGGA,000131.800,,,,,,,,1050.3,M,0.0,M,,*74
$GPGGA,000132.000,,,,,,,,1053.3,M,0.0,M,,*7C
$GPGGA,000132.200,,,,,,,,1053.0,M,0.0,M,,*7D
$GPGGA,000132.400,,,,,,,,1050.4,M,0.0,M,,*7C
$GPGGA,000132.600,,,,,,,,1050.8,M,0.0,M,,*72
$GPGGA,000132.800,,,,,,,,1051.0,M,0.0,M,,*75
$GPGGA,000133.000,,,,,,,,1050.9,M,0.0,M,,*74
$GPGGA,000133.200,,,,,,,,1049.0,M,0.0,M,,*77
$GPGGA,000133.400,,,,,,,,1053.4,M,0.0,M,,*7E
$GPGGA,000133.600,,,,,,,,1048.5,M,0.0,M,,*77
$GPGGA,000133.800,,,,,,,,1054.6,M,0.0,M,,*77
$GPGGA,000134.000,,,,,,,,1047.8,M,0.0,M,,*74
$GPGGA,000134.200,,,,,,,,1052.8,M,0.0,M,,*72
$GPGGA,000134.400,,,,,,,,1052.6,M,0.0,M,,*7A
$GPGGA,000134.600,,,,,,,,1049.8,M,0.0,M,,*7C
$GPGGA,000134.800,,,,,,,,1051.7,M,0.0,M,,*74
$GPGGA,000135.000,,,,,,,,1048.4,M,0.0,M,,*76
$GPGGA,000135.200,,,,,,,,1047.5,M,0.0,M,,*7A
$GPGGA,000135.400,,,,,,,,1050.9,M,0.0,M,,*76
$GPGGA,000135.600,,,,,,,,1048.1,M,0.0,M,,*75
$GPGGA,000135.800,,,,,,,,1047.6,M,0.0,M,,*73
$GPGGA,000136.000,,,,,,,,1048.2,M,0.0,M,,*73
$GPGGA,000136.200,,,,,,,,1053.0,M,0.0,M,,*79
$GPGGA,000136.400,,,,,,,,1050.3,M,0.0,M,,*7F
$GPGGA,000136.600,,,,,,,,1048.5,M,0.0,M,,*72
$GPGGA,000136.800,,,,,,,,1050.1,M,0.0,M,,*71
$GPGGA,000137.000,,,,,,,,1046.4,M,0.0,M,,*7A
$GPGGA,000137.200,,,,,,,,1046.4,M,0.0,M,,*78
$GPGGA,000137.400,,,,,,,,1047.9,M,0.0,M,,*72
$GPGGA,000137.600,,,,,,,,1049.8,M,0.0,M,,*7F
$GPGGA,000137.800,,,,,,,,1052.1,M,0.0,M,,*72
$GPGGA,000138.000,,,,,,,,1043.2,M,0.0,M,,*76
$GPGGA,000138.200,,,,,,,,1045.8,M,0.0,M,,*78
$GPGGA,000138.400,,,,,,,,1044.5,M,0.0,M,,*72
$GPGGA,000138.600,,,,,,,,1042.7,M,0.0,M,,*74
$GPGGA,000138.800,,,,,,,,1045.1,M,0.0,M,,*7B
$GPGGA,000139.000,,,,,,,,1047.0,M,0.0,M,,*71
$GPGGA,000139.200,,,,,,,,1043.8,M,0.0,M,,*7F
$GPGGA,000139.400,,,,,,,,1045.8,M,0.0,M,,*7F
$GPGGA,000139.600,,,,,,,,1041.9,M,0.0,M,,*78
$GPGGA,000139.800,,,,,,,,1045.9,M,0.0,M,,*72
$GPGGA,000140.000,,,,,,,,1040.4,M,0.0,M,,*7C
$GPGGA,000140.200,,,,,,,,1042.6,M,0.0,M,,*7E
$GPGGA,000140.400,,,,,,,,1043.4,M,0.0,M,,*7B
$GPGGA,000140.600,,,,,,,,1044.7,M,0.0,M,,*7D
$GPGGA,000140.800,,,,,,,,1040.5,M,0.0,M,,*75
$GPGGA,000141.000,,,,,,,,1043.3,M,0.0,M,,*79
$GPGGA,000141.200,,,,,,,,1041.2,M,0.0,M,,*78
$GPGGA,000141.400,,,,,,,,1042.5,M,0.0,M,,*7A
$GPGGA,000141.600,,,,,,,,1044.3,M,0.0,M,,*78
$GPGGA,000141.800,,,,,,,,1042.4,M,0.0,M,,*77
$GPGGA,000142.000,,,,,,,,1048.9,M,0.0,M,,*7B
$GPGGA,000142.200,,,,,,,,1041.4,M,0.0,M,,*7D
$GPGGA,000142.400,,,,,,,,1045.2,M,0.0,M,,*79
$GPGGA,000142.600,,,,,,,,1041.6,M,0.0,M,,*7B
$GPGGA,000142.800,,,,,,,,1045.3,M,0.0,M,,*74
$GPGGA,000143.000,,,,,,,,1044.3,M,0.0,M,,*7C
$GPGGA,000143.200,,,,,,,,1041.9,M,0.0,M,,*71
$GPGGA,000143.400,,,,,,,,1039.2,M,0.0,M,,*73
$GPGGA,000143.600,,,,,,,,1043.2,M,0.0,M,,*7C
$GPGGA,000143.800,,,,,,,,1037.3,M,0.0,M,,*70
$GPGGA,000144.000,,,,,,,,1041.4,M,0.0,M,,*79
$GPGGA,000144.200,,,,,,,,1043.6,M,0.0,M,,*7B
$GPGGA,000144.400,,,,,,,,1042.7,M,0.0,M,,*7D
$GPGGA,000144.600,,,,,,,,1040.2,M,0.0,M,,*78
$GPGGA,000144.800,,,,,,,,1041.1,M,0.0,M,,*74
$GPGGA,000145.000,,,,,,,,1040.9,M,0.0,M,,*74
$GPGGA,000145.200,,,,,,,,1038.8,M,0.0,M,,*78
$GPGGA,000145.400,,,,,,,,1042.7,M,0.0,M,,*7C
$GPGGA,000145.600,,,,,,,,1038.9,M,0.0,M,,*7D
$GPGGA,000145.800,,,,,,,,1034.3,M,0.0,M,,*75
$GPGGA,000146.000,,,,,,,,1040.6,M,0.0,M,,*78
$GPGGA,000146.200,,,,,,,,1042.1,M,0.0,M,,*7F
$GPGGA,000146.400,,,,,,,,1039.7,M,0.0,M,,*73
$GPGGA,000146.600,,,,,,,,1038.0,M,0.0,M,,*77
$GPGGA,000146.800,,,,,,,,1036.1,M,0.0,M,,*76
$GPGGA,000147.000,,,,,,,,1038.4,M,0.0,M,,*74
$GPGGA,000147.200,,,,,,,,1035.6,M,0.0,M,,*79
$GPGGA,000147.400,,,,,,,,1037.4,M,0.0,M,,*7F
$GPGGA,000147.600,,,,,,,,1036.8,M,0.0,M,,*70
$GPGGA,000147.800,,,,,,,,1034.8,M,0.0,M,,*7C
$GPGGA,000148.000,,,,,,,,1035.3,M,0.0,M,,*71
$GPGGA,000148.200,,,,,,,,1034.5,M,0.0,M,,*74
$GPGGA,000148.400,,,,,,,,1034.7,M,0.0,M,,*70
$GPGGA,000148.600,,,,,,,,1035.6,M,0.0,M,,*72
$GPGGA,000148.800,,,,,,,,1035.6,M,0.0,M,,*7C
$GPGGA,000149.000,,,,,,,,1031.9,M,0.0,M,,*7E
$GPGGA,000149.200,,,,,,,,1036.0,M,0.0,M,,*72
$GPGGA,000149.400,,,,,,,,1035.8,M,0.0,M,,*7F
$GPGGA,000149.600,,,,,,,,1031.9,M,0.0,M,,*78
$GPGGA,000149.800,,,,,,,,1033.9,M,0.0,M,,*74
$GPGGA,000150.000,,,,,,,,1035.2,M,0.0,M,,*79
$GPGGA,000150.200,,,,,,,,1033.9,M,0.0,M,,*76
$GPGGA,000150.400,,,,,,,,1034.0,M,0.0,M,,*7E
$GPGGA,000150.600,,,,,,,,1038.4,M,0.0,M,,*74
$GPGGA,000150.800,,,,,,,,1033.2,M,0.0,M,,*77
$GPGGA,000151.000,,,,,,,,1030.9,M,0.0,M,,*76
$GPGGA,000151.200,,,,,,,,1033.9,M,0.0,M,,*77
$GPGGA,000151.400,,,,,,,,1030.7,M,0.0,M,,*7C
$GPGGA,000151.600,,,,,,,,1032.5,M,0.0,M,,*7E
$GPGGA,000151.800,,,,,,,,1032.4,M,0.0,M,,*71
$GPGGA,000152.000,,,,,,,,1032.5,M,0.0,M,,*7B
$GPGGA,000152.200,,,,,,,,1027.9,M,0.0,M,,*71
$GPGGA,000152.400,,,,,,,,1030.5,M,0.0,M,,*7D
$GPGGA,000152.600,,,,,,,,1028.2,M,0.0,M,,*71
$GPGGA,000152.800,,,,,,,,1031.9,M,0.0,M,,*7C
$GPGGA,000153.000,,,,,,,,1030.0,M,0.0,M,,*7D
$GPGGA,000153.200,,,,,,,,1028.5,M,0.0,M,,*73
$GPGGA,000153.400,,,,,,,,1026.1,M,0.0,M,,*7F
$GPGGA,000153.600,,,,,,,,1025.3,M,0.0,M,,*7C
$GPGGA,000153.800,,,,,,,,1029.6,M,0.0,M,,*7B
$GPGGA,000154.000,,,,,,,,1024.0,M,0.0,M,,*7F
$GPGGA,000154.200,,,,,,,,1024.8,M,0.0,M,,*75
$GPGGA,000154.400,,,,,,,,1025.4,M,0.0,M,,*7E
$GPGGA,000154.600,,,,,,,,1013.7,M,0.0,M,,*7A
$GPGGA,000154.800,,,,,,,,1023.0,M,0.0,M,,*70
$GPGGA,000155.000,,,,,,,,1026.0,M,0.0,M,,*7C
$GPGGA,000155.200,,,,,,,,1026.1,M,0.0,M,,*7F
$GPGGA,000155.400,,,,,,,,1021.9,M,0.0,M,,*76
$GPGGA,000155.600,,,,,,,,1026.9,M,0.0,M,,*73
$GPGGA,000155.800,,,,,,,,1025.2,M,0.0,M,,*75
$GPGGA,000156.000,,,,,,,,1026.4,M,0.0,M,,*7B
$GPGGA,000156.200,,,,,,,,1021.3,M,0.0,M,,*79
$GPGGA,000156.400,,,,,,,,1023.3,M,0.0,M,,*7D
$GPGGA,000156.600,,,,,,,,1021.3,M,0.0,M,,*7D
$GPGGA,000156.800,,,,,,,,1025.6,M,0.0,M,,*72
$GPGGA,000157.000,,,,,,,,1020.3,M,0.0,M,,*7B
$GPGGA,000157.200,,,,,,,,1023.1,M,0.0,M,,*78
$GPGGA,000157.400,,,,,,,,1020.8,M,0.0,M,,*74
$GPGGA,000157.600,,,,,,,,1021.7,M,0.0,M,,*78
$GPGGA,000157.800,,,,,,,,1022.6,M,0.0,M,,*74
$GPGGA,000158.000,,,,,,,,1026.2,M,0.0,M,,*73
$GPGGA,000158.200,,,,,,,,1019.2,M,0.0,M,,*7D
$GPGGA,000158.400,,,,,,,,1021.9,M,0.0,M,,*7B
$GPGGA,000158.600,,,,,,,,1022.9,M,0.0,M,,*7A
$GPGGA,000158.800,,,,,,,,1022.9,M,0.0,M,,*74
$GPGGA,000159.000,,,,,,,,1021.8,M,0.0,M,,*7F
$GPGGA,000159.200,,,,,,,,1022.0,M,0.0,M,,*76
$GPGGA,000159.400,,,,,,,,1018.9,M,0.0,M,,*70
$GPGGA,000159.600,,,,,,,,1022.5,M,0.0,M,,*77
$GPGGA,000159.800,,,,,,,,1020.2,M,0.0,M,,*7C
$GPGGA,000200.000,,,,,,,,1019.7,M,0.0,M,,*74
$GPGGA,000200.200,,,,,,,,1017.9,M,0.0,M,,*76
$GPGGA,000200.400,,,,,,,,1021.8,M,0.0,M,,*74
$GPGGA,000200.600,,,,,,,,1020.8,M,0.0,M,,*77
$GPGGA,000200.800,,,,,,,,1020.1,M,0.0,M,,*70
$GPGGA,000201.000,,,,,,,,1021.1,M,0.0,M,,*78
$GPGGA,000201.200,,,,,,,,1019.8,M,0.0,M,,*78
$GPGGA,000201.400,,,,,,,,1019.8,M,0.0,M,,*7E
$GPGGA,000201.600,,,,,,,,1017.6,M,0.0,M,,*7C
$GPGGA,000201.800,,,,,,,,1013.3,M,0.0,M,,*73
$GPGGA,000202.000,,,,,,,,1017.0,M,0.0,M,,*7F
$GPGGA,000202.200,,,,,,,,1015.0,M,0.0,M,,*7F
$GPGGA,000202.400,,,,,,,,1013.4,M,0.0,M,,*7B
$GPGGA,000202.600,,,,,,,,1012.0,M,0.0,M,,*7C
$GPGGA,000202.800,,,,,,,,1015.9,M,0.0,M,,*7C
$GPGGA,000203.000,,,,,,,,1012.1,M,0.0,M,,*7A
$GPGGA,000203.200,,,,,,,,1016.7,M,0.0,M,,*7A
$GPGGA,000203.400,,,,,,,,1007.2,M,0.0,M,,*79
$GPGGA,000203.600,,,,,,,,1015.9,M,0.0,M,,*73
$GPGGA,000203.800,,,,,,,,1010.6,M,0.0,M,,*77
$GPGGA,000204.000,,,,,,,,1007.3,M,0.0,M,,*7B
$GPGGA,000204.200,,,,,,,,1011.2,M,0.0,M,,*7F
$GPGGA,000204.400,,,,,,,,1009.4,M,0.0,M,,*76
$GPGGA,000204.600,,,,,,,,1011.2,M,0.0,M,,*7B
$GPGGA,000204.800,,,,,,,,1010.8,M,0.0,M,,*7E
$GPGGA,000205.000,,,,,,,,1011.1,M,0.0,M,,*7F
$GPGGA,000205.200,,,,,,,,1008.1,M,0.0,M,,*75
$GPGGA,000205.400,,,,,,,,1009.0,M,0.0,M,,*73
$GPGGA,000205.600,,,,,,,,1010.9,M,0.0,M,,*70
$GPGGA,000205.800,,,,,,,,1012.3,M,0.0,M,,*76
$GPGGA,000206.000,,,,,,,,1008.9,M,0.0,M,,*7C
$GPGGA,000206.200,,,,,,,,1006.6,M,0.0,M,,*7F
$GPGGA,000206.400,,,,,,,,1004.3,M,0.0,M,,*7E
$GPGGA,000206.600,,,,,,,,1008.3,M,0.0,M,,*70
$GPGGA,000206.800,,,,,,,,1006.2,M,0.0,M,,*71
$GPGGA,000207.000,,,,,,,,1005.1,M,0.0,M,,*78
$GPGGA,000207.200,,,,,,,,1006.4,M,0.0,M,,*7C
$GPGGA,000207.400,,,,,,,,1004.6,M,0.0,M,,*7A
$GPGGA,000207.600,,,,,,,,1005.7,M,0.0,M,,*78
$GPGGA,000207.800,,,,,,,,1002.2,M,0.0,M,,*74
$GPGGA,000208.000,,,,,,,,1004.4,M,0.0,M,,*73
$GPGGA,000208.200,,,,,,,,1005.7,M,0.0,M,,*73
$GPGGA,000208.400,,,,,,,,1004.5,M,0.0,M,,*76
$GPGGA,000208.600,,,,,,,,1001.7,M,0.0,M,,*73
$GPGGA,000208.800,,,,,,,,1004.4,M,0.0,M,,*7B
$GPGGA,000209.000,,,,,,,,1003.8,M,0.0,M,,*79
$GPGGA,000209.200,,,,,,,,1006.0,M,0.0,M,,*76
$GPGGA,000209.400,,,,,,,,1002.3,M,0.0,M,,*77
$GPGGA,000209.600,,,,,,,,1001.6,M,0.0,M,,*73
$GPGGA,000209.800,,,,,,,,999.4,M,0.0,M,,*46
$GPGGA,000210.000,,,,,,,,997.2,M,0.0,M,,*4E
$GPGGA,000210.200,,,,,,,,996.9,M,0.0,M,,*46
$GPGGA,000210.400,,,,,,,,997.6,M,0.0,M,,*4E
$GPGGA,000210.600,,,,,,,,997.6,M,0.0,M,,*4C
$GPGGA,000210.800,,,,,,,,995.1,M,0.0,M,,*47
$GPGGA,000211.000,,,,,,,,995.1,M,0.0,M,,*4E
$GPGGA,000211.200,,,,,,,,996.2,M,0.0,M,,*4C
$GPGGA,000211.400,,,,,,,,997.0,M,0.0,M,,*49
$GPGGA,000211.600,,,,,,,,991.5,M,0.0,M,,*48
$GPGGA,000211.800,,,,,,,,995.4,M,0.0,M,,*43
$GPGGA,000212.000,,,,,,,,995.2,M,0.0,M,,*4E
$GPGGA,000212.200,,,,,,,,995.4,M,0.0,M,,*4A
$GPGGA,000212.400,,,,,,,,993.8,M,0.0,M,,*46
$GPGGA,000212.600,,,,,,,,994.3,M,0.0,M,,*48
$GPGGA,000212.800,,,,,,,,990.5,M,0.0,M,,*44
$GPGGA,000213.000,,,,,,,,989.8,M,0.0,M,,*48
$GPGGA,000213.200,,,,,,,,994.1,M,0.0,M,,*4F
$GPGGA,000213.400,,,,,,,,994.5,M,0.0,M,,*4D
$GPGGA,000213.600,,,,,,,,993.9,M,0.0,M,,*44
$GPGGA,000213.800,,,,,,,,990.3,M,0.0,M,,*43
$GPGGA,000214.000,,,,,,,,990.6,M,0.0,M,,*49
$GPGGA,000214.200,,,,,,,,989.6,M,0.0,M,,*43
$GPGGA,000214.400,,,,,,,,989.4,M,0.0,M,,*47
$GPGGA,000214.600,,,,,,,,961.6,M,0.0,M,,*41
$GPGGA,000214.800,,,,,,,,992.8,M,0.0,M,,*4D
$GPGGA,000215.000,,,,,,,,994.2,M,0.0,M,,*48
$GPGGA,000215.200,,,,,,,,987.2,M,0.0,M,,*48
$GPGGA,000215.400,,,,,,,,990.1,M,0.0,M,,*4B
$GPGGA,000215.600,,,,,,,,987.1,M,0.0,M,,*4F
$GPGGA,000215.800,,,,,,,,989.4,M,0.0,M,,*4A
$GPGGA,000216.000,,,,,,,,987.0,M,0.0,M,,*4B
$GPGGA,000216.200,,,,,,,,985.6,M,0.0,M,,*4D
$GPGGA,000216.400,,,,,,,,986.4,M,0.0,M,,*4A
$GPGGA,000216.600,,,,,,,,983.3,M,0.0,M,,*4A
$GPGGA,000216.800,,,,,,,,984.6,M,0.0,M,,*46
$GPGGA,000217.000,,,,,,,,983.7,M,0.0,M,,*49
$GPGGA,000217.200,,,,,,,,984.6,M,0.0,M,,*4D
$GPGGA,000217.400,,,,,,,,982.2,M,0.0,M,,*49
$GPGGA,000217.600,,,,,,,,985.5,M,0.0,M,,*4B
$GPGGA,000217.800,,,,,,,,979.9,M,0.0,M,,*4A
$GPGGA,000218.000,,,,,,,,980.4,M,0.0,M,,*46
$GPGGA,000218.200,,,,,,,,981.6,M,0.0,M,,*47
$GPGGA,000218.400,,,,,,,,982.5,M,0.0,M,,*41
$GPGGA,000218.600,,,,,,,,978.9,M,0.0,M,,*4A
$GPGGA,000218.800,,,,,,,,981.1,M,0.0,M,,*4A
$GPGGA,000219.000,,,,,,,,981.4,M,0.0,M,,*46
$GPGGA,000219.200,,,,,,,,981.6,M,0.0,M,,*46
$GPGGA,000219.400,,,,,,,,978.1,M,0.0,M,,*41
$GPGGA,000219.600,,,,,,,,982.9,M,0.0,M,,*4E
$GPGGA,000219.800,,,,,,,,978.1,M,0.0,M,,*4D
$GPGGA,000220.000,,,,,,,,981.0,M,0.0,M,,*48
$GPGGA,000220.200,,,,,,,,977.7,M,0.0,M,,*44
$GPGGA,000220.400,,,,,,,,981.1,M,0.0,M,,*4D
$GPGGA,000220.600,,,,,,,,978.9,M,0.0,M,,*41
$GPGGA,000220.800,,,,,,,,980.2,M,0.0,M,,*43
$GPGGA,000221.000,,,,,,,,978.7,M,0.0,M,,*48
$GPGGA,000221.200,,,,,,,,978.2,M,0.0,M,,*4F
$GPGGA,000221.400,,,,,,,,975.3,M,0.0,M,,*45
$GPGGA,000221.600,,,,,,,,977.0,M,0.0,M,,*46
$GPGGA,000221.800,,,,,,,,974.8,M,0.0,M,,*43
$GPGGA,000222.000,,,,,,,,972.3,M,0.0,M,,*45
$GPGGA,000222.200,,,,,,,,973.0,M,0.0,M,,*45
$GPGGA,000222.400,,,,,,,,974.6,M,0.0,M,,*42
$GPGGA,000222.600,,,,,,,,971.2,M,0.0,M,,*41
$GPGGA,000222.800,,,,,,,,971.8,M,0.0,M,,*45
$GPGGA,000223.000,,,,,,,,970.9,M,0.0,M,,*4C
$GPGGA,000223.200,,,,,,,,968.9,M,0.0,M,,*47
$GPGGA,000223.400,,,,,,,,969.6,M,0.0,M,,*4F
$GPGGA,000223.600,,,,,,,,971.9,M,0.0,M,,*4B
$GPGGA,000223.800,,,,,,,,967.0,M,0.0,M,,*4B
$GPGGA,000224.000,,,,,,,,968.7,M,0.0,M,,*4C
$GPGGA,000224.200,,,,,,,,970.5,M,0.0,M,,*45
$GPGGA,000224.400,,,,,,,,966.0,M,0.0,M,,*41
$GPGGA,000224.600,,,,,,,,967.6,M,0.0,M,,*44
$GPGGA,000224.800,,,,,,,,963.8,M,0.0,M,,*40
$GPGGA,000225.000,,,,,,,,960.4,M,0.0,M,,*46
$GPGGA,000225.200,,,,,,,,965.9,M,0.0,M,,*4C
$GPGGA,000225.400,,,,,,,,965.1,M,0.0,M,,*42
$GPGGA,000225.600,,,,,,,,966.1,M,0.0,M,,*43
$GPGGA,000225.800,,,,,,,,961.5,M,0.0,M,,*4E
$GPGGA,000226.000,,,,,,,,963.2,M,0.0,M,,*40
$GPGGA,000226.200,,,,,,,,958.9,M,0.0,M,,*41
$GPGGA,000226.400,,,,,,,,962.0,M,0.0,M,,*47
$GPGGA,000226.600,,,,,,,,958.1,M,0.0,M,,*4D
$GPGGA,000226.800,,,,,,,,959.1,M,0.0,M,,*42
$GPGGA,000227.000,,,,,,,,959.5,M,0.0,M,,*4F
$GPGGA,000227.200,,,,,,,,958.3,M,0.0,M,,*4A
$GPGGA,000227.400,,,,,,,,961.3,M,0.0,M,,*46
$GPGGA,000227.600,,,,,,,,960.5,M,0.0,M,,*43
$GPGGA,000227.800,,,,,,,,957.4,M,0.0,M,,*48
$GPGGA,000228.000,,,,,,,,956.5,M,0.0,M,,*4F
$GPGGA,000228.200,,,,,,,,961.5,M,0.0,M,,*49
$GPGGA,000228.400,,,,,,,,958.5,M,0.0,M,,*45
$GPGGA,000228.600,,,,,,,,954.1,M,0.0,M,,*4F
$GPGGA,000228.800,,,,,,,,958.7,M,0.0,M,,*4B
$GPGGA,000229.000,,,,,,,,956.5,M,0.0,M,,*4E
$GPGGA,000229.200,,,,,,,,954.4,M,0.0,M,,*4F
$GPGGA,000229.400,,,,,,,,955.0,M,0.0,M,,*4C
$GPGGA,000229.600,,,,,,,,951.5,M,0.0,M,,*4F
$GPGGA,000229.800,,,,,,,,956.7,M,0.0,M,,*44