$GPGGA,000000.000,,,,,,,,1082.3,M,0.0,M,,*70
$GPGGA,000000.200,,,,,,,,1087.7,M,0.0,M,,*73
$GPGGA,000000.400,,,,,,,,1088.6,M,0.0,M,,*7B
$GPGGA,000000.600,,,,,,,,1085.0,M,0.0,M,,*72
$GPGGA,000000.800,,,,,,,,1083.2,M,0.0,M,,*78
$GPGGA,000001.000,,,,,,,,1083.8,M,0.0,M,,*7B
$GPGGA,000001.200,,,,,,,,1084.7,M,0.0,M,,*71
$GPGGA,000001.400,,,,,,,,1082.5,M,0.0,M,,*73
$GPGGA,000001.600,,,,,,,,1089.0,M,0.0,M,,*7F
$GPGGA,000001.800,,,,,,,,1086.0,M,0.0,M,,*7E
$GPGGA,000002.000,,,,,,,,1088.6,M,0.0,M,,*7D
$GPGGA,000002.200,,,,,,,,1088.6,M,0.0,M,,*7F
$GPGGA,000002.400,,,,,,,,1090.6,M,0.0,M,,*70
$GPGGA,000002.600,,,,,,,,1088.4,M,0.0,M,,*79
$GPGGA,000002.800,,,,,,,,1086.2,M,0.0,M,,*7F
$GPGGA,000003.000,,,,,,,,1089.6,M,0.0,M,,*7D
$GPGGA,000003.200,,,,,,,,1085.4,M,0.0,M,,*71
$GPGGA,000003.400,,,,,,,,1084.3,M,0.0,M,,*71
$GPGGA,000003.600,,,,,,,,1122.8,M,0.0,M,,*75
$GPGGA,000003.800,,,,,,,,1084.3,M,0.0,M,,*7D
$GPGGA,000004.000,,,,,,,,1084.1,M,0.0,M,,*70
$GPGGA,000004.200,,,,,,,,1089.4,M,0.0,M,,*7A
$GPGGA,000004.400,,,,,,,,1087.5,M,0.0,M,,*73
$GPGGA,000004.600,,,,,,,,1086.1,M,0.0,M,,*74
$GPGGA,000004.800,,,,,,,,1086.5,M,0.0,M,,*7E
$GPGGA,000005.000,,,,,,,,1085.4,M,0.0,M,,*75
$GPGGA,000005.200,,,,,,,,1091.0,M,0.0,M,,*76
$GPGGA,000005.400,,,,,,,,1089.3,M,0.0,M,,*7A
$GPGGA,000005.600,,,,,,,,1090.4,M,0.0,M,,*77
$GPGGA,000005.800,,,,,,,,1090.8,M,0.0,M,,*75
$GPGGA,000006.000,,,,,,,,1087.2,M,0.0,M,,*72
$GPGGA,000006.200,,,,,,,,1090.8,M,0.0,M,,*7C
$GPGGA,000006.400,,,,,,,,1089.4,M,0.0,M,,*7E
$GPGGA,000006.600,,,,,,,,1090.0,M,0.0,M,,*70
$GPGGA,000006.800,,,,,,,,1086.0,M,0.0,M,,*79
$GPGGA,000007.000,,,,,,,,1090.6,M,0.0,M,,*71
$GPGGA,000007.200,,,,,,,,1088.5,M,0.0,M,,*79
$GPGGA,000007.400,,,,,,,,1087.6,M,0.0,M,,*73
$GPGGA,000007.600,,,,,,,,1088.5,M,0.0,M,,*7D
$GPGGA,000007.800,,,,,,,,1087.3,M,0.0,M,,*7A
$GPGGA,000008.000,,,,,,,,1087.7,M,0.0,M,,*79
$GPGGA,000008.200,,,,,,,,1086.7,M,0.0,M,,*7A
$GPGGA,000008.400,,,,,,,,1086.6,M,0.0,M,,*7D
$GPGGA,000008.600,,,,,,,,1087.6,M,0.0,M,,*7E
$GPGGA,000008.800,,,,,,,,1090.9,M,0.0,M,,*79
$GPGGA,000009.000,,,,,,,,1084.0,M,0.0,M,,*7C
$GPGGA,000009.200,,,,,,,,1082.3,M,0.0,M,,*7B
$GPGGA,000009.400,,,,,,,,1087.1,M,0.0,M,,*7A
$GPGGA,000009.600,,,,,,,,1089.2,M,0.0,M,,*75
$GPGGA,000009.800,,,,,,,,1086.8,M,0.0,M,,*7E
$GPGGA,000010.000,,,,,,,,1082.9,M,0.0,M,,*7B
$GPGGA,000010.200,,,,,,,,1085.9,M,0.0,M,,*7E
$GPGGA,000010.400,,,,,,,,1085.8,M,0.0,M,,*79
$GPGGA,000010.600,,,,,,,,1083.7,M,0.0,M,,*72
$GPGGA,000010.800,,,,,,,,1088.8,M,0.0,M,,*78
$GPGGA,000011.000,,,,,,,,1087.9,M,0.0,M,,*7F
$GPGGA,000011.200,,,,,,,,0.0,M,0.0,M,,*4A
$GPGGA,000011.400,,,,,,,,1088.4,M,0.0,M,,*79
$GPGGA,000011.600,,,,,,,,1085.9,M,0.0,M,,*7B
$GPGGA,000011.800,,,,,,,,1089.9,M,0.0,M,,*79
$GPGGA,000012.000,,,,,,,,1088.3,M,0.0,M,,*79
$GPGGA,000012.200,,,,,,,,1090.6,M,0.0,M,,*77
$GPGGA,000012.400,,,,,,,,1086.8,M,0.0,M,,*78
$GPGGA,000012.600,,,,,,,,1088.7,M,0.0,M,,*7B
$GPGGA,000012.800,,,,,,,,1085.5,M,0.0,M,,*7A
$GPGGA,000013.000,,,,,,,,1087.2,M,0.0,M,,*76
$GPGGA,000013.200,,,,,,,,1088.8,M,0.0,M,,*71
$GPGGA,000013.400,,,,,,,,1088.2,M,0.0,M,,*7D
$GPGGA,000013.600,,,,,,,,1088.0,M,0.0,M,,*7D
$GPGGA,000013.800,,,,,,,,1088.6,M,0.0,M,,*75
$GPGGA,000014.000,,,,,,,,1087.4,M,0.0,M,,*77
$GPGGA,000014.200,,,,,,,,1085.7,M,0.0,M,,*74
$GPGGA,000014.400,,,,,,,,1087.4,M,0.0,M,,*73
$GPGGA,000014.600,,,,,,,,1086.5,M,0.0,M,,*71
$GPGGA,000014.800,,,,,,,,1086.7,M,0.0,M,,*7D
$GPGGA,000015.000,,,,,,,,1085.4,M,0.0,M,,*74
$GPGGA,000015.200,,,,,,,,1086.5,M,0.0,M,,*74
$GPGGA,000015.400,,,,,,,,1085.1,M,0.0,M,,*75
$GPGGA,000015.600,,,,,,,,1081.1,M,0.0,M,,*73
$GPGGA,000015.800,,,,,,,,1085.9,M,0.0,M,,*71
$GPGGA,000016.000,,,,,,,,1084.9,M,0.0,M,,*7B
$GPGGA,000016.200,,,,,,,,1082.3,M,0.0,M,,*75
$GPGGA,000016.400,,,,,,,,1085.1,M,0.0,M,,*76
$GPGGA,000016.600,,,,,,,,1083.5,M,0.0,M,,*76
$GPGGA,000016.800,,,,,,,,1085.4,M,0.0,M,,*7F
$GPGGA,000017.000,,,,,,,,1084.1,M,0.0,M,,*72
$GPGGA,000017.200,,,,,,,,1084.0,M,0.0,M,,*71
$GPGGA,000017.400,,,,,,,,1085.5,M,0.0,M,,*73
$GPGGA,000017.600,,,,,,,,1082.8,M,0.0,M,,*7B
$GPGGA,000017.800,,,,,,,,1080.6,M,0.0,M,,*79
$GPGGA,000018.000,,,,,,,,1083.4,M,0.0,M,,*7F
$GPGGA,000018.200,,,,,,,,1085.8,M,0.0,M,,*77
$GPGGA,000018.400,,,,,,,,1084.1,M,0.0,M,,*79
$GPGGA,000018.600,,,,,,,,1082.9,M,0.0,M,,*75
$GPGGA,000018.800,,,,,,,,1079.7,M,0.0,M,,*71
$GPGGA,000019.000,,,,,,,,1075.6,M,0.0,M,,*75
$GPGGA,000019.200,,,,,,,,1080.1,M,0.0,M,,*7A
$GPGGA,000019.400,,,,,,,,1078.5,M,0.0,M,,*7F
$GPGGA,000019.600,,,,,,,,1079.8,M,0.0,M,,*71
$GPGGA,000019.800,,,,,,,,1081.2,M,0.0,M,,*72
$GPGGA,000020.000,,,,,,,,1082.5,M,0.0,M,,*74
$GPGGA,000020.200,,,,,,,,1082.1,M,0.0,M,,*72
$GPGGA,000020.400,,,,,,,,1082.9,M,0.0,M,,*7C
$GPGGA,000020.600,,,,,,,,1077.9,M,0.0,M,,*74
$GPGGA,000020.800,,,,,,,,1075.9,M,0.0,M,,*78
$GPGGA,000021.000,,,,,,,,1077.6,M,0.0,M,,*7C
$GPGGA,000021.200,,,,,,,,1075.4,M,0.0,M,,*7E
$GPGGA,000021.400,,,,,,,,1078.8,M,0.0,M,,*79
$GPGGA,000021.600,,,,,,,,1079.1,M,0.0,M,,*73
$GPGGA,000021.800,,,,,,,,1081.6,M,0.0,M,,*7D
$GPGGA,000022.000,,,,,,,,1075.6,M,0.0,M,,*7D
$GPGGA,000022.200,,,,,,,,1076.0,M,0.0,M,,*7A
$GPGGA,000022.400,,,,,,,,1073.8,M,0.0,M,,*71
$GPGGA,000022.600,,,,,,,,1074.1,M,0.0,M,,*7D
$GPGGA,000022.800,,,,,,,,1076.4,M,0.0,M,,*74
$GPGGA,000023.000,,,,,,,,1074.0,M,0.0,M,,*7B
$GPGGA,000023.200,,,,,,,,1075.0,M,0.0,M,,*78
$GPGGA,000023.400,,,,,,,,1072.4,M,0.0,M,,*7D
$GPGGA,000023.600,,,,,,,,1074.1,M,0.0,M,,*7C
$GPGGA,000023.800,,,,,,,,1074.8,M,0.0,M,,*7B
$GPGGA,000024.000,,,,,,,,1075.0,M,0.0,M,,*7D
$GPGGA,000024.200,,,,,,,,1074.8,M,0.0,M,,*76
$GPGGA,000024.400,,,,,,,,1075.3,M,0.0,M,,*7A
$GPGGA,000024.600,,,,,,,,1071.5,M,0.0,M,,*7A
$GPGGA,000024.800,,,,,,,,1073.7,M,0.0,M,,*74
$GPGGA,000025.000,,,,,,,,1071.7,M,0.0,M,,*7F
$GPGGA,000025.200,,,,,,,,1074.0,M,0.0,M,,*7F
$GPGGA,000025.400,,,,,,,,1073.6,M,0.0,M,,*78
$GPGGA,000025.600,,,,,,,,1073.0,M,0.0,M,,*7C
$GPGGA,000025.800,,,,,,,,1070.8,M,0.0,M,,*79
$GPGGA,000026.000,,,,,,,,1068.8,M,0.0,M,,*7B
$GPGGA,000026.200,,,,,,,,1072.4,M,0.0,M,,*7E
$GPGGA,000026.400,,,,,,,,1072.3,M,0.0,M,,*7F
$GPGGA,000026.600,,,,,,,,1070.7,M,0.0,M,,*7B
$GPGGA,000026.800,,,,,,,,1069.8,M,0.0,M,,*72
$GPGGA,000027.000,,,,,,,,1070.5,M,0.0,M,,*7E
$GPGGA,000027.200,,,,,,,,1069.9,M,0.0,M,,*78
$GPGGA,000027.400,,,,,,,,1065.9,M,0.0,M,,*72
$GPGGA,000027.600,,,,,,,,1067.3,M,0.0,M,,*78
$GPGGA,000027.800,,,,,,,,1068.8,M,0.0,M,,*72
$GPGGA,000028.000,,,,,,,,1070.1,M,0.0,M,,*75
$GPGGA,000028.200,,,,,,,,1069.3,M,0.0,M,,*7D
$GPGGA,000028.400,,,,,,,,1067.1,M,0.0,M,,*77
$GPGGA,000028.600,,,,,,,,1067.5,M,0.0,M,,*71
$GPGGA,000028.800,,,,,,,,1066.6,M,0.0,M,,*7D
$GPGGA,000029.000,,,,,,,,1066.5,M,0.0,M,,*77
$GPGGA,000029.200,,,,,,,,1067.1,M,0.0,M,,*70
$GPGGA,000029.400,,,,,,,,1066.2,M,0.0,M,,*74
$GPGGA,000029.600,,,,,,,,1066.4,M,0.0,M,,*70
$GPGGA,000029.800,,,,,,,,1065.8,M,0.0,M,,*71
$GPGGA,000030.000,,,,,,,,1061.9,M,0.0,M,,*74
$GPGGA,000030.200,,,,,,,,1061.2,M,0.0,M,,*7D
$GPGGA,000030.400,,,,,,,,1063.3,M,0.0,M,,*78
$GPGGA,000030.600,,,,,,,,1057.5,M,0.0,M,,*7B
$GPGGA,000030.800,,,,,,,,1059.5,M,0.0,M,,*7B
$GPGGA,000031.000,,,,,,,,1060.1,M,0.0,M,,*7C
$GPGGA,000031.200,,,,,,,,1058.1,M,0.0,M,,*75
$GPGGA,000031.400,,,,,,,,1056.7,M,0.0,M,,*7B
$GPGGA,000031.600,,,,,,,,1051.9,M,0.0,M,,*70
$GPGGA,000031.800,,,,,,,,1057.3,M,0.0,M,,*72
$GPGGA,000032.000,,,,,,,,1057.0,M,0.0,M,,*7A
$GPGGA,000032.200,,,,,,,,1057.2,M,0.0,M,,*7A
$GPGGA,000032.400,,,,,,,,1057.0,M,0.0,M,,*7E
$GPGGA,000032.600,,,,,,,,1056.2,M,0.0,M,,*7F
$GPGGA,000032.800,,,,,,,,1060.6,M,0.0,M,,*70
$GPGGA,000033.000,,,,,,,,1057.8,M,0.0,M,,*73
$GPGGA,000033.200,,,,,,,,1056.5,M,0.0,M,,*7D
$GPGGA,000033.400,,,,,,,,1057.1,M,0.0,M,,*7E
$GPGGA,000033.600,,,,,,,,1053.4,M,0.0,M,,*7D
$GPGGA,000033.800,,,,,,,,1052.6,M,0.0,M,,*70
$GPGGA,000034.000,,,,,,,,1051.4,M,0.0,M,,*7E
$GPGGA,000034.200,,,,,,,,1053.2,M,0.0,M,,*78
$GPGGA,000034.400,,,,,,,,1052.2,M,0.0,M,,*7F
$GPGGA,000034.600,,,,,,,,1055.4,M,0.0,M,,*7C
$GPGGA,000034.800,,,,,,,,1049.4,M,0.0,M,,*7F
$GPGGA,000035.000,,,,,,,,1044.9,M,0.0,M,,*76
$GPGGA,000035.200,,,,,,,,1052.3,M,0.0,M,,*79
$GPGGA,000035.400,,,,,,,,1047.2,M,0.0,M,,*7A
$GPGGA,000035.600,,,,,,,,1047.0,M,0.0,M,,*7A
$GPGGA,000035.800,,,,,,,,1042.5,M,0.0,M,,*74
$GPGGA,000036.000,,,,,,,,1047.3,M,0.0,M,,*7C
$GPGGA,000036.200,,,,,,,,1045.9,M,0.0,M,,*76
$GPGGA,000036.400,,,,,,,,1044.8,M,0.0,M,,*70
$GPGGA,000036.600,,,,,,,,1047.6,M,0.0,M,,*7F
$GPGGA,000036.800,,,,,,,,1044.5,M,0.0,M,,*71
$GPGGA,000037.000,,,,,,,,1042.4,M,0.0,M,,*7F
$GPGGA,000037.200,,,,,,,,1044.6,M,0.0,M,,*79
$GPGGA,000037.400,,,,,,,,1040.8,M,0.0,M,,*75
$GPGGA,000037.600,,,,,,,,1043.2,M,0.0,M,,*7E
$GPGGA,000037.800,,,,,,,,1042.9,M,0.0,M,,*7A
$GPGGA,000038.000,,,,,,,,1039.2,M,0.0,M,,*7A
$GPGGA,000038.200,,,,,,,,1035.4,M,0.0,M,,*72
$GPGGA,000038.400,,,,,,,,1033.0,M,0.0,M,,*76
$GPGGA,000038.600,,,,,,,,1040.1,M,0.0,M,,*71
$GPGGA,000038.800,,,,,,,,1038.4,M,0.0,M,,*75
$GPGGA,000039.000,,,,,,,,1037.9,M,0.0,M,,*7E
$GPGGA,000039.200,,,,,,,,1035.6,M,0.0,M,,*71
$GPGGA,000039.400,,,,,,,,1034.8,M,0.0,M,,*78
$GPGGA,000039.600,,,,,,,,1033.2,M,0.0,M,,*77
$GPGGA,000039.800,,,,,,,,1028.6,M,0.0,M,,*77
$GPGGA,000040.000,,,,,,,,1031.4,M,0.0,M,,*7B
$GPGGA,000040.200,,,,,,,,1031.8,M,0.0,M,,*75
$GPGGA,000040.400,,,,,,,,1030.9,M,0.0,M,,*73
$GPGGA,000040.600,,,,,,,,1030.7,M,0.0,M,,*7F
$GPGGA,000040.800,,,,,,,,1032.3,M,0.0,M,,*77
$GPGGA,000041.000,,,,,,,,1029.1,M,0.0,M,,*76
$GPGGA,000041.200,,,,,,,,1028.1,M,0.0,M,,*75
$GPGGA,000041.400,,,,,,,,1028.4,M,0.0,M,,*76
$GPGGA,000041.600,,,,,,,,1030.9,M,0.0,M,,*70
$GPGGA,000041.800,,,,,,,,1026.9,M,0.0,M,,*79
$GPGGA,000042.000,,,,,,,,1028.5,M,0.0,M,,*70
$GPGGA,000042.200,,,,,,,,1027.0,M,0.0,M,,*78
$GPGGA,000042.400,,,,,,,,1029.9,M,0.0,M,,*79
$GPGGA,000042.600,,,,,,,,1028.7,M,0.0,M,,*74
$GPGGA,000042.800,,,,,,,,1026.1,M,0.0,M,,*72
$GPGGA,000043.000,,,,,,,,1029.6,M,0.0,M,,*73
$GPGGA,000043.200,,,,,,,,1022.5,M,0.0,M,,*79
$GPGGA,000043.400,,,,,,,,1027.4,M,0.0,M,,*7B
$GPGGA,000043.600,,,,,,,,1027.6,M,0.0,M,,*7B
$GPGGA,000043.800,,,,,,,,1025.4,M,0.0,M,,*75
$GPGGA,000044.000,,,,,,,,1027.2,M,0.0,M,,*7E
$GPGGA,000044.200,,,,,,,,1026.7,M,0.0,M,,*78
$GPGGA,000044.400,,,,,,,,1023.4,M,0.0,M,,*78
$GPGGA,000044.600,,,,,,,,1021.3,M,0.0,M,,*7F
$GPGGA,000044.800,,,,,,,,1028.0,M,0.0,M,,*7B
$GPGGA,000045.000,,,,,,,,1023.5,M,0.0,M,,*7C
$GPGGA,000045.200,,,,,,,,1025.0,M,0.0,M,,*7D
$GPGGA,000045.400,,,,,,,,1027.0,M,0.0,M,,*79
$GPGGA,000045.600,,,,,,,,1022.4,M,0.0,M,,*7A
$GPGGA,000045.800,,,,,,,,1021.2,M,0.0,M,,*71
$GPGGA,000046.000,,,,,,,,1021.3,M,0.0,M,,*7B
$GPGGA,000046.200,,,,,,,,1026.2,M,0.0,M,,*7F
$GPGGA,000046.400,,,,,,,,1025.1,M,0.0,M,,*79
$GPGGA,000046.600,,,,,,,,1023.5,M,0.0,M,,*79
$GPGGA,000046.800,,,,,,,,1026.8,M,0.0,M,,*7F
$GPGGA,000047.000,,,,,,,,1020.7,M,0.0,M,,*7F
$GPGGA,000047.200,,,,,,,,1019.5,M,0.0,M,,*75
$GPGGA,000047.400,,,,,,,,1025.0,M,0.0,M,,*79
$GPGGA,000047.600,,,,,,,,1020.5,M,0.0,M,,*7B
$GPGGA,000047.800,,,,,,,,1026.3,M,0.0,M,,*75
$GPGGA,000048.000,,,,,,,,1022.4,M,0.0,M,,*71
$GPGGA,000048.200,,,,,,,,1023.6,M,0.0,M,,*70
$GPGGA,000048.400,,,,,,,,1022.4,M,0.0,M,,*75
$GPGGA,000048.600,,,,,,,,1024.2,M,0.0,M,,*77
$GPGGA,000048.800,,,,,,,,1020.5,M,0.0,M,,*7A
$GPGGA,000049.000,,,,,,,,1019.9,M,0.0,M,,*75
$GPGGA,000049.200,,,,,,,,1024.3,M,0.0,M,,*73
$GPGGA,000049.400,,,,,,,,1022.4,M,0.0,M,,*74
$GPGGA,000049.600,,,,,,,,1021.6,M,0.0,M,,*77
$GPGGA,000049.800,,,,,,,,1020.4,M,0.0,M,,*7A
$GPGGA,000050.000,,,,,,,,1021.4,M,0.0,M,,*7B
$GPGGA,000050.200,,,,,,,,1019.9,M,0.0,M,,*7F
$GPGGA,000050.400,,,,,,,,1021.1,M,0.0,M,,*7A
$GPGGA,000050.600,,,,,,,,1018.6,M,0.0,M,,*75
$GPGGA,000050.800,,,,,,,,1022.2,M,0.0,M,,*76
$GPGGA,000051.000,,,,,,,,1019.9,M,0.0,M,,*7C
$GPGGA,000051.200,,,,,,,,1018.0,M,0.0,M,,*76
$GPGGA,000051.400,,,,,,,,1018.2,M,0.0,M,,*72
$GPGGA,000051.600,,,,,,,,1018.0,M,0.0,M,,*72
$GPGGA,000051.800,,,,,,,,1018.1,M,0.0,M,,*7D
$GPGGA,000052.000,,,,,,,,1018.4,M,0.0,M,,*73
$GPGGA,000052.200,,,,,,,,1014.4,M,0.0,M,,*7D
$GPGGA,000052.400,,,,,,,,1016.1,M,0.0,M,,*7C
$GPGGA,000052.600,,,,,,,,1013.8,M,0.0,M,,*72
$GPGGA,000052.800,,,,,,,,1015.9,M,0.0,M,,*7B
$GPGGA,000053.000,,,,,,,,1014.6,M,0.0,M,,*7C
$GPGGA,000053.200,,,,,,,,1011.9,M,0.0,M,,*74
$GPGGA,000053.400,,,,,,,,1012.7,M,0.0,M,,*7F
$GPGGA,000053.600,,,,,,,,1013.0,M,0.0,M,,*7B
$GPGGA,000053.800,,,,,,,,1013.9,M,0.0,M,,*7C
$GPGGA,000054.000,,,,,,,,1010.0,M,0.0,M,,*79
$GPGGA,000054.200,,,,,,,,1012.1,M,0.0,M,,*78
$GPGGA,000054.400,,,,,,,,1011.1,M,0.0,M,,*7D
$GPGGA,000054.600,,,,,,,,1012.5,M,0.0,M,,*78
$GPGGA,000054.800,,,,,,,,1009.2,M,0.0,M,,*7B
$GPGGA,000055.000,,,,,,,,1010.7,M,0.0,M,,*7F
$GPGGA,000055.200,,,,,,,,1009.1,M,0.0,M,,*73
$GPGGA,000055.400,,,,,,,,1010.4,M,0.0,M,,*78
$GPGGA,000055.600,,,,,,,,1008.8,M,0.0,M,,*7F
$GPGGA,000055.800,,,,,,,,1008.3,M,0.0,M,,*7A
$GPGGA,000056.000,,,,,,,,1008.8,M,0.0,M,,*7A
$GPGGA,000056.200,,,,,,,,1012.8,M,0.0,M,,*73
$GPGGA,000056.400,,,,,,,,1013.3,M,0.0,M,,*7F
$GPGGA,000056.600,,,,,,,,1009.9,M,0.0,M,,*7C
$GPGGA,000056.800,,,,,,,,1010.2,M,0.0,M,,*71
$GPGGA,000057.000,,,,,,,,1007.9,M,0.0,M,,*75
$GPGGA,000057.200,,,,,,,,1013.2,M,0.0,M,,*79
$GPGGA,000057.400,,,,,,,,1008.1,M,0.0,M,,*76
$GPGGA,000057.600,,,,,,,,1006.9,M,0.0,M,,*72
$GPGGA,000057.800,,,,,,,,1007.6,M,0.0,M,,*72
$GPGGA,000058.000,,,,,,,,1005.0,M,0.0,M,,*71
$GPGGA,000058.200,,,,,,,,1005.1,M,0.0,M,,*72
$GPGGA,000058.400,,,,,,,,1008.6,M,0.0,M,,*7E
$GPGGA,000058.600,,,,,,,,1007.2,M,0.0,M,,*77
$GPGGA,000058.800,,,,,,,,1003.4,M,0.0,M,,*7B
$GPGGA,000059.000,,,,,,,,1007.9,M,0.0,M,,*7B
$GPGGA,000059.200,,,,,,,,1004.0,M,0.0,M,,*73
$GPGGA,000059.400,,,,,,,,1004.6,M,0.0,M,,*73
$GPGGA,000059.600,,,,,,,,1005.8,M,0.0,M,,*7E
$GPGGA,000059.800,,,,,,,,1002.6,M,0.0,M,,*79
$GPGGA,000100.000,,,,,,,,1004.1,M,0.0,M,,*7D
$GPGGA,000100.200,,,,,,,,1003.5,M,0.0,M,,*7C
$GPGGA,000100.400,,,,,,,,1000.0,M,0.0,M,,*7C
$GPGGA,000100.600,,,,,,,,1003.5,M,0.0,M,,*78
$GPGGA,000100.800,,,,,,,,1002.0,M,0.0,M,,*72
$GPGGA,000101.000,,,,,,,,1000.7,M,0.0,M,,*7E
$GPGGA,000101.200,,,,,,,,1001.7,M,0.0,M,,*7D
$GPGGA,000101.400,,,,,,,,998.9,M,0.0,M,,*4D
$GPGGA,000101.600,,,,,,,,1000.2,M,0.0,M,,*7D
$GPGGA,000101.800,,,,,,,,1005.4,M,0.0,M,,*70
$GPGGA,000102.000,,,,,,,,999.9,M,0.0,M,,*4B
$GPGGA,000102.200,,,,,,,,1003.0,M,0.0,M,,*7B
$GPGGA,000102.400,,,,,,,,1001.9,M,0.0,M,,*76
$GPGGA,000102.600,,,,,,,,997.6,M,0.0,M,,*4C
$GPGGA,000102.800,,,,,,,,995.2,M,0.0,M,,*44
$GPGGA,000103.000,,,,,,,,1000.6,M,0.0,M,,*7D
$GPGGA,000103.200,,,,,,,,998.5,M,0.0,M,,*45
$GPGGA,000103.400,,,,,,,,998.0,M,0.0,M,,*46
$GPGGA,000103.600,,,,,,,,998.7,M,0.0,M,,*43
$GPGGA,000103.800,,,,,,,,999.7,M,0.0,M,,*4C
$GPGGA,000104.000,,,,,,,,1000.6,M,0.0,M,,*7A
$GPGGA,000104.200,,,,,,,,1000.4,M,0.0,M,,*7A
$GPGGA,000104.400,,,,,,,,1001.7,M,0.0,M,,*7E
$GPGGA,000104.600,,,,,,,,999.0,M,0.0,M,,*42
$GPGGA,000104.800,,,,,,,,999.0,M,0.0,M,,*4C
$GPGGA,000105.000,,,,,,,,999.9,M,0.0,M,,*4C
$GPGGA,000105.200,,,,,,,,995.7,M,0.0,M,,*4C
$GPGGA,000105.400,,,,,,,,997.4,M,0.0,M,,*4B
$GPGGA,000105.600,,,,,,,,995.4,M,0.0,M,,*4B
$GPGGA,000105.800,,,,,,,,995.8,M,0.0,M,,*49
$GPGGA,000106.000,,,,,,,,996.2,M,0.0,M,,*4B
$GPGGA,000106.200,,,,,,,,995.1,M,0.0,M,,*49
$GPGGA,000106.400,,,,,,,,991.7,M,0.0,M,,*4D
$GPGGA,000106.600,,,,,,,,996.9,M,0.0,M,,*46
$GPGGA,000106.800,,,,,,,,994.3,M,0.0,M,,*40
$GPGGA,000107.000,,,,,,,,992.7,M,0.0,M,,*4B
$GPGGA,000107.200,,,,,,,,993.9,M,0.0,M,,*46
$GPGGA,000107.400,,,,,,,,992.0,M,0.0,M,,*48
$GPGGA,000107.600,,,,,,,,997.0,M,0.0,M,,*4F
$GPGGA,000107.800,,,,,,,,990.5,M,0.0,M,,*43
$GPGGA,000108.000,,,,,,,,992.6,M,0.0,M,,*45
$GPGGA,000108.200,,,,,,,,990.9,M,0.0,M,,*4A
$GPGGA,000108.400,,,,,,,,992.3,M,0.0,M,,*44
$GPGGA,000108.600,,,,,,,,989.6,M,0.0,M,,*49
$GPGGA,000108.800,,,,,,,,993.3,M,0.0,M,,*49
$GPGGA,000109.000,,,,,,,,991.0,M,0.0,M,,*41
$GPGGA,000109.200,,,,,,,,989.4,M,0.0,M,,*4E
$GPGGA,000109.400,,,,,,,,994.4,M,0.0,M,,*44
$GPGGA,000109.600,,,,,,,,989.6,M,0.0,M,,*48
$GPGGA,000109.800,,,,,,,,990.9,M,0.0,M,,*41
$GPGGA,000110.000,,,,,,,,989.4,M,0.0,M,,*44
$GPGGA,000110.200,,,,,,,,991.9,M,0.0,M,,*42
$GPGGA,000110.400,,,,,,,,989.8,M,0.0,M,,*4C
$GPGGA,000110.600,,,,,,,,989.1,M,0.0,M,,*47
$GPGGA,000110.800,,,,,,,,986.3,M,0.0,M,,*44
$GPGGA,000111.000,,,,,,,,988.5,M,0.0,M,,*45
$GPGGA,000111.200,,,,,,,,988.5,M,0.0,M,,*47
$GPGGA,000111.400,,,,,,,,983.7,M,0.0,M,,*48
$GPGGA,000111.600,,,,,,,,987.1,M,0.0,M,,*48
$GPGGA,000111.800,,,,,,,,985.6,M,0.0,M,,*43
$GPGGA,000112.000,,,,,,,,985.1,M,0.0,M,,*4F
$GPGGA,000112.200,,,,,,,,985.0,M,0.0,M,,*4C
$GPGGA,000112.400,,,,,,,,986.7,M,0.0,M,,*4E
$GPGGA,000112.600,,,,,,,,986.4,M,0.0,M,,*4F
$GPGGA,000112.800,,,,,,,,988.3,M,0.0,M,,*48
$GPGGA,000113.000,,,,,,,,985.1,M,0.0,M,,*4E
$GPGGA,000113.200,,,,,,,,984.0,M,0.0,M,,*4C
$GPGGA,000113.400,,,,,,,,986.8,M,0.0,M,,*40
$GPGGA,000113.600,,,,,,,,986.5,M,0.0,M,,*4F
$GPGGA,000113.800,,,,,,,,986.3,M,0.0,M,,*47
$GPGGA,000114.000,,,,,,,,986.8,M,0.0,M,,*43
$GPGGA,000114.200,,,,,,,,984.2,M,0.0,M,,*49
$GPGGA,000114.400,,,,,,,,985.8,M,0.0,M,,*44
$GPGGA,000114.600,,,,,,,,983.6,M,0.0,M,,*4E
$GPGGA,000114.800,,,,,,,,982.2,M,0.0,M,,*45
$GPGGA,000115.000,,,,,,,,983.8,M,0.0,M,,*47
$GPGGA,000115.200,,,,,,,,983.8,M,0.0,M,,*45
$GPGGA,000115.400,,,,,,,,981.3,M,0.0,M,,*4A
$GPGGA,000115.600,,,,,,,,981.7,M,0.0,M,,*4C
$GPGGA,000115.800,,,,,,,,980.0,M,0.0,M,,*44
$GPGGA,000116.000,,,,,,,,983.1,M,0.0,M,,*4D
$GPGGA,000116.200,,,,,,,,981.6,M,0.0,M,,*4A
$GPGGA,000116.400,,,,,,,,985.2,M,0.0,M,,*4C
$GPGGA,000116.600,,,,,,,,980.2,M,0.0,M,,*4B
$GPGGA,000116.800,,,,,,,,981.4,M,0.0,M,,*42
$GPGGA,000117.000,,,,,,,,981.4,M,0.0,M,,*4B
$GPGGA,000117.200,,,,,,,,977.2,M,0.0,M,,*46
$GPGGA,000117.400,,,,,,,,976.2,M,0.0,M,,*41
$GPGGA,000117.600,,,,,,,,974.9,M,0.0,M,,*4A
$GPGGA,000117.800,,,,,,,,976.1,M,0.0,M,,*4E
$GPGGA,000118.000,,,,,,,,980.0,M,0.0,M,,*41
$GPGGA,000118.200,,,,,,,,978.3,M,0.0,M,,*47
$GPGGA,000118.400,,,,,,,,979.9,M,0.0,M,,*4A
$GPGGA,000118.600,,,,,,,,980.4,M,0.0,M,,*43
$GPGGA,000118.800,,,,,,,,982.7,M,0.0,M,,*4C
$GPGGA,000119.000,,,,,,,,979.5,M,0.0,M,,*43
$GPGGA,000119.200,,,,,,,,981.6,M,0.0,M,,*45
$GPGGA,000119.400,,,,,,,,976.9,M,0.0,M,,*44
$GPGGA,000119.600,,,,,,,,977.3,M,0.0,M,,*4D
$GPGGA,000119.800,,,,,,,,976.2,M,0.0,M,,*43
$GPGGA,000120.000,,,,,,,,975.3,M,0.0,M,,*43
$GPGGA,000120.200,,,,,,,,972.9,M,0.0,M,,*4C
$GPGGA,000120.400,,,,,,,,975.4,M,0.0,M,,*40
$GPGGA,000120.600,,,,,,,,972.0,M,0.0,M,,*41
$GPGGA,000120.800,,,,,,,,975.9,M,0.0,M,,*41
$GPGGA,000121.000,,,,,,,,971.5,M,0.0,M,,*40
$GPGGA,000121.200,,,,,,,,976.2,M,0.0,M,,*42
$GPGGA,000121.400,,,,,,,,970.7,M,0.0,M,,*47
$GPGGA,000121.600,,,,,,,,971.1,M,0.0,M,,*42
$GPGGA,000121.800,,,,,,,,969.2,M,0.0,M,,*46
$GPGGA,000122.000,,,,,,,,971.5,M,0.0,M,,*43
$GPGGA,000122.200,,,,,,,,971.8,M,0.0,M,,*4C
$GPGGA,000122.400,,,,,,,,967.3,M,0.0,M,,*46
$GPGGA,000122.600,,,,,,,,973.4,M,0.0,M,,*46
$GPGGA,000122.800,,,,,,,,969.5,M,0.0,M,,*42
$GPGGA,000123.000,,,,,,,,971.7,M,0.0,M,,*40
$GPGGA,000123.200,,,,,,,,975.6,M,0.0,M,,*47
$GPGGA,000123.400,,,,,,,,971.2,M,0.0,M,,*41
$GPGGA,000123.600,,,,,,,,967.3,M,0.0,M,,*45
$GPGGA,000123.800,,,,,,,,969.7,M,0.0,M,,*41
$GPGGA,000124.000,,,,,,,,971.7,M,0.0,M,,*47
$GPGGA,000124.200,,,,,,,,969.3,M,0.0,M,,*48
$GPGGA,000124.400,,,,,,,,970.7,M,0.0,M,,*42
$GPGGA,000124.600,,,,,,,,968.7,M,0.0,M,,*49
$GPGGA,000124.800,,,,,,,,969.9,M,0.0,M,,*48
$GPGGA,000125.000,,,,,,,,968.8,M,0.0,M,,*41
$GPGGA,000125.200,,,,,,,,963.8,M,0.0,M,,*48
$GPGGA,000125.400,,,,,,,,967.8,M,0.0,M,,*4A
$GPGGA,000125.600,,,,,,,,964.7,M,0.0,M,,*44
$GPGGA,000125.800,,,,,,,,966.4,M,0.0,M,,*4B
$GPGGA,000126.000,,,,,,,,963.1,M,0.0,M,,*40
$GPGGA,000126.200,,,,,,,,960.9,M,0.0,M,,*49
$GPGGA,000126.400,,,,,,,,962.4,M,0.0,M,,*40
$GPGGA,000126.600,,,,,,,,965.9,M,0.0,M,,*48
$GPGGA,000126.800,,,,,,,,960.2,M,0.0,M,,*48
$GPGGA,000127.000,,,,,,,,958.2,M,0.0,M,,*4A
$GPGGA,000127.200,,,,,,,,960.9,M,0.0,M,,*48
$GPGGA,000127.400,,,,,,,,962.5,M,0.0,M,,*40
$GPGGA,000127.600,,,,,,,,962.1,M,0.0,M,,*46
$GPGGA,000127.800,,,,,,,,964.5,M,0.0,M,,*4A
$GPGGA,000128.000,,,,,,,,959.5,M,0.0,M,,*43
$GPGGA,000128.200,,,,,,,,958.3,M,0.0,M,,*46
$GPGGA,000128.400,,,,,,,,957.0,M,0.0,M,,*4C
$GPGGA,000128.600,,,,,,,,959.6,M,0.0,M,,*46
$GPGGA,000128.800,,,,,,,,954.8,M,0.0,M,,*4B
$GPGGA,000129.000,,,,,,,,957.6,M,0.0,M,,*4F
$GPGGA,000129.200,,,,,,,,958.6,M,0.0,M,,*42
$GPGGA,000129.400,,,,,,,,956.2,M,0.0,M,,*4E
$GPGGA,000129.600,,,,,,,,958.0,M,0.0,M,,*40
$GPGGA,000129.800,,,,,,,,955.8,M,0.0,M,,*4B
$GPGGA,000130.000,,,,,,,,957.2,M,0.0,M,,*43
$GPGGA,000130.200,,,,,,,,953.4,M,0.0,M,,*43
$GPGGA,000130.400,,,,,,,,951.1,M,0.0,M,,*42
$GPGGA,000130.600,,,,,,,,952.7,M,0.0,M,,*45
$GPGGA,000130.800,,,,,,,,951.4,M,0.0,M,,*4B
$GPGGA,000131.000,,,,,,,,950.9,M,0.0,M,,*4E
$GPGGA,000131.200,,,,,,,,951.7,M,0.0,M,,*43
$GPGGA,000131.400,,,,,,,,946.9,M,0.0,M,,*4D
$GPGGA,000131.600,,,,,,,,951.3,M,0.0,M,,*43
$GPGGA,000131.800,,,,,,,,949.0,M,0.0,M,,*47
$GPGGA,000132.000,,,,,,,,951.6,M,0.0,M,,*43
$GPGGA,000132.200,,,,,,,,950.8,M,0.0,M,,*4E
$GPGGA,000132.400,,,,,,,,947.7,M,0.0,M,,*41
$GPGGA,000132.600,,,,,,,,947.8,M,0.0,M,,*4C
$GPGGA,000132.800,,,,,,,,947.8,M,0.0,M,,*42
$GPGGA,000133.000,,,,,,,,947.4,M,0.0,M,,*47
$GPGGA,000133.200,,,,,,,,945.5,M,0.0,M,,*46
$GPGGA,000133.400,,,,,,,,949.6,M,0.0,M,,*4F
$GPGGA,000133.600,,,,,,,,944.2,M,0.0,M,,*44
$GPGGA,000133.800,,,,,,,,949.9,M,0.0,M,,*4C
$GPGGA,000134.000,,,,,,,,942.6,M,0.0,M,,*47
$GPGGA,000134.200,,,,,,,,947.2,M,0.0,M,,*44
$GPGGA,000134.400,,,,,,,,946.9,M,0.0,M,,*48
$GPGGA,000134.600,,,,,,,,943.9,M,0.0,M,,*4F
$GPGGA,000134.800,,,,,,,,945.7,M,0.0,M,,*49
$GPGGA,000135.000,,,,,,,,941.9,M,0.0,M,,*4A
$GPGGA,000135.200,,,,,,,,940.5,M,0.0,M,,*45
$GPGGA,000135.400,,,,,,,,943.2,M,0.0,M,,*47
$GPGGA,000135.600,,,,,,,,939.9,M,0.0,M,,*43
$GPGGA,000135.800,,,,,,,,939.0,M,0.0,M,,*44
$GPGGA,000136.000,,,,,,,,939.2,M,0.0,M,,*4D
$GPGGA,000136.200,,,,,,,,943.6,M,0.0,M,,*46
$GPGGA,000136.400,,,,,,,,940.1,M,0.0,M,,*44
$GPGGA,000136.600,,,,,,,,937.4,M,0.0,M,,*43
$GPGGA,000136.800,,,,,,,,937.9,M,0.0,M,,*40
$GPGGA,000137.000,,,,,,,,933.4,M,0.0,M,,*40
$GPGGA,000137.200,,,,,,,,933.2,M,0.0,M,,*44
$GPGGA,000137.400,,,,,,,,934.6,M,0.0,M,,*41
$GPGGA,000137.600,,,,,,,,936.3,M,0.0,M,,*44
$GPGGA,000137.800,,,,,,,,938.4,M,0.0,M,,*43
$GPGGA,000138.000,,,,,,,,929.3,M,0.0,M,,*43
$GPGGA,000138.200,,,,,,,,931.7,M,0.0,M,,*4C
$GPGGA,000138.400,,,,,,,,930.2,M,0.0,M,,*4E
$GPGGA,000138.600,,,,,,,,936.7,M,0.0,M,,*4F
$GPGGA,000138.800,,,,,,,,930.6,M,0.0,M,,*46
$GPGGA,000139.000,,,,,,,,932.2,M,0.0,M,,*49
$GPGGA,000139.200,,,,,,,,928.9,M,0.0,M,,*4B
$GPGGA,000139.400,,,,,,,,930.6,M,0.0,M,,*4B
$GPGGA,000139.600,,,,,,,,926.4,M,0.0,M,,*4C
$GPGGA,000139.800,,,,,,,,930.1,M,0.0,M,,*40
$GPGGA,000140.000,,,,,,,,923.7,M,0.0,M,,*42
$GPGGA,000140.200,,,,,,,,925.0,M,0.0,M,,*41
$GPGGA,000140.400,,,,,,,,924.9,M,0.0,M,,*4F
$GPGGA,000140.600,,,,,,,,925.3,M,0.0,M,,*46
$GPGGA,000140.800,,,,,,,,920.1,M,0.0,M,,*4F
$GPGGA,000141.000,,,,,,,,922.4,M,0.0,M,,*41
$GPGGA,000141.200,,,,,,,,920.0,M,0.0,M,,*45
$GPGGA,000141.400,,,,,,,,921.0,M,0.0,M,,*42
$GPGGA,000141.600,,,,,,,,922.5,M,0.0,M,,*46
$GPGGA,000141.800,,,,,,,,920.3,M,0.0,M,,*4C
$GPGGA,000142.000,,,,,,,,926.3,M,0.0,M,,*41
$GPGGA,000142.200,,,,,,,,918.3,M,0.0,M,,*4E
$GPGGA,000142.400,,,,,,,,921.7,M,0.0,M,,*46
$GPGGA,000142.600,,,,,,,,917.9,M,0.0,M,,*4F
$GPGGA,000142.800,,,,,,,,921.2,M,0.0,M,,*4F
$GPGGA,000143.000,,,,,,,,919.8,M,0.0,M,,*47
$GPGGA,000143.200,,,,,,,,916.8,M,0.0,M,,*4A
$GPGGA,000143.400,,,,,,,,913.6,M,0.0,M,,*47
$GPGGA,000143.600,,,,,,,,917.0,M,0.0,M,,*47
$GPGGA,000143.800,,,,,,,,910.8,M,0.0,M,,*46
$GPGGA,000144.000,,,,,,,,914.7,M,0.0,M,,*42
$GPGGA,000144.200,,,,,,,,916.6,M,0.0,M,,*43
$GPGGA,000144.400,,,,,,,,915.3,M,0.0,M,,*43
$GPGGA,000144.600,,,,,,,,912.3,M,0.0,M,,*46
$GPGGA,000144.800,,,,,,,,912.3,M,0.0,M,,*48
$GPGGA,000145.000,,,,,,,,911.3,M,0.0,M,,*42
$GPGGA,000145.200,,,,,,,,908.3,M,0.0,M,,*48
$GPGGA,000145.400,,,,,,,,911.3,M,0.0,M,,*46
$GPGGA,000145.600,,,,,,,,906.8,M,0.0,M,,*49
$GPGGA,000145.800,,,,,,,,901.6,M,0.0,M,,*4E
$GPGGA,000146.000,,,,,,,,907.5,M,0.0,M,,*40
$GPGGA,000146.200,,,,,,,,908.5,M,0.0,M,,*4D
$GPGGA,000146.400,,,,,,,,905.4,M,0.0,M,,*47
$GPGGA,000146.600,,,,,,,,903.6,M,0.0,M,,*41
$GPGGA,000146.800,,,,,,,,901.6,M,0.0,M,,*4D
$GPGGA,000147.000,,,,,,,,904.0,M,0.0,M,,*47
$GPGGA,000147.200,,,,,,,,901.2,M,0.0,M,,*42
$GPGGA,000147.400,,,,,,,,902.7,M,0.0,M,,*42
$GPGGA,000147.600,,,,,,,,900.9,M,0.0,M,,*4C
$GPGGA,000147.800,,,,,,,,897.8,M,0.0,M,,*4C
$GPGGA,000148.000,,,,,,,,897.2,M,0.0,M,,*41
$GPGGA,000148.200,,,,,,,,895.1,M,0.0,M,,*42
$GPGGA,000148.400,,,,,,,,894.8,M,0.0,M,,*4C
$GPGGA,000148.600,,,,,,,,908.8,M,0.0,M,,*4A
$GPGGA,000148.800,,,,,,,,895.2,M,0.0,M,,*4B
$GPGGA,000149.000,,,,,,,,891.2,M,0.0,M,,*46
$GPGGA,000149.200,,,,,,,,894.9,M,0.0,M,,*4A
$GPGGA,000149.400,,,,,,,,893.4,M,0.0,M,,*46
$GPGGA,000149.600,,,,,,,,888.3,M,0.0,M,,*49
$GPGGA,000149.800,,,,,,,,889.2,M,0.0,M,,*47
$GPGGA,000150.000,,,,,,,,889.5,M,0.0,M,,*40
$GPGGA,000150.200,,,,,,,,887.7,M,0.0,M,,*4E
$GPGGA,000150.400,,,,,,,,887.8,M,0.0,M,,*47
$GPGGA,000150.600,,,,,,,,892.2,M,0.0,M,,*4B
$GPGGA,000150.800,,,,,,,,887.0,M,0.0,M,,*43
$GPGGA,000151.000,,,,,,,,884.5,M,0.0,M,,*4C
$GPGGA,000151.200,,,,,,,,887.1,M,0.0,M,,*49
$GPGGA,000151.400,,,,,,,,883.3,M,0.0,M,,*49
$GPGGA,000151.600,,,,,,,,884.8,M,0.0,M,,*47
$GPGGA,000151.800,,,,,,,,884.2,M,0.0,M,,*43
$GPGGA,000152.000,,,,,,,,884.0,M,0.0,M,,*4A
$GPGGA,000152.200,,,,,,,,879.3,M,0.0,M,,*49
$GPGGA,000152.400,,,,,,,,881.7,M,0.0,M,,*4C
$GPGGA,000152.600,,,,,,,,879.2,M,0.0,M,,*4C
$GPGGA,000152.800,,,,,,,,882.5,M,0.0,M,,*41
$GPGGA,000153.000,,,,,,,,880.2,M,0.0,M,,*4D
$GPGGA,000153.200,,,,,,,,878.3,M,0.0,M,,*49
$GPGGA,000153.400,,,,,,,,875.6,M,0.0,M,,*47
$GPGGA,000153.600,,,,,,,,874.5,M,0.0,M,,*47
$GPGGA,000153.800,,,,,,,,878.5,M,0.0,M,,*45
$GPGGA,000154.000,,,,,,,,872.5,M,0.0,M,,*40
$GPGGA,000154.200,,,,,,,,872.9,M,0.0,M,,*4E
$GPGGA,000154.400,,,,,,,,872.8,M,0.0,M,,*49
$GPGGA,000154.600,,,,,,,,873.0,M,0.0,M,,*42
$GPGGA,000154.800,,,,,,,,869.0,M,0.0,M,,*47
$GPGGA,000155.000,,,,,,,,871.3,M,0.0,M,,*44
$GPGGA,000155.200,,,,,,,,870.7,M,0.0,M,,*43
$GPGGA,000155.400,,,,,,,,865.8,M,0.0,M,,*4E
$GPGGA,000155.600,,,,,,,,870.1,M,0.0,M,,*41
$GPGGA,000155.800,,,,,,,,867.8,M,0.0,M,,*40
$GPGGA,000156.000,,,,,,,,868.6,M,0.0,M,,*4A
$GPGGA,000156.200,,,,,,,,863.1,M,0.0,M,,*44
$GPGGA,000156.400,,,,,,,,864.8,M,0.0,M,,*4C
$GPGGA,000156.600,,,,,,,,862.3,M,0.0,M,,*43
$GPGGA,000156.800,,,,,,,,0.0,M,0.0,M,,*42
$GPGGA,000157.000,,,,,,,,860.3,M,0.0,M,,*46
$GPGGA,000157.200,,,,,,,,862.5,M,0.0,M,,*40
$GPGGA,000157.400,,,,,,,,859.8,M,0.0,M,,*43
$GPGGA,000157.600,,,,,,,,860.3,M,0.0,M,,*40
$GPGGA,000157.800,,,,,,,,860.6,M,0.0,M,,*4B
$GPGGA,000158.000,,,,,,,,863.5,M,0.0,M,,*4C
$GPGGA,000158.200,,,,,,,,855.9,M,0.0,M,,*47
$GPGGA,000158.400,,,,,,,,857.8,M,0.0,M,,*42
$GPGGA,000158.600,,,,,,,,858.1,M,0.0,M,,*46
$GPGGA,000158.800,,,,,,,,857.4,M,0.0,M,,*42
$GPGGA,000159.000,,,,,,,,855.6,M,0.0,M,,*4B
$GPGGA,000159.200,,,,,,,,855.0,M,0.0,M,,*4F
$GPGGA,000159.400,,,,,,,,851.2,M,0.0,M,,*4F
$GPGGA,000159.600,,,,,,,,854.1,M,0.0,M,,*4B
$GPGGA,000159.800,,,,,,,,851.1,M,0.0,M,,*40